{"type":"FeatureCollection","features":[{"type":"Feature","properties":{"osm_id":8923815,"name":"Monterey Road","ref":null,"highway":"secondary"},"geometry":{"type":"LineString","coordinates":[[-121.557164,36.985135],[-121.557158,36.985221],[-121.557154,36.985306],[-121.557151,36.985383],[-121.55715,36.985456],[-121.557152,36.985527],[-121.557159,36.985589],[-121.55717,36.985663],[-121.557185,36.985729],[-121.557202,36.985792],[-121.557227,36.985861],[-121.557249,36.985922],[-121.55728,36.985989],[-121.557309,36.986046],[-121.557342,36.986102],[-121.557382,36.986163],[-121.557421,36.98622]]}},{"type":"Feature","properties":{"osm_id":8927534,"name":null,"ref":"US 101 Business","highway":"motorway_link"},"geometry":{"type":"LineString","coordinates":[[-121.558284,36.982666],[-121.558266,36.982964],[-121.558292,36.983113],[-121.558312,36.983245],[-121.558316,36.983301],[-121.558323,36.983375],[-121.558326,36.983433],[-121.558329,36.983496],[-121.55833,36.983744],[-121.558326,36.983828],[-121.558322,36.983894],[-121.558319,36.983952],[-121.558308,36.98409],[-121.558302,36.984193],[-121.558291,36.984295],[-121.558274,36.9844],[-121.558252,36.984493],[-121.55823,36.984578],[-121.558209,36.984652],[-121.55819,36.984715],[-121.55817,36.984771],[-121.558147,36.984821],[-121.558111,36.984875],[-121.558068,36.984924],[-121.558017,36.984966],[-121.557968,36.984997],[-121.557919,36.985022],[-121.557866,36.985042],[-121.557813,36.985059],[-121.557759,36.98507],[-121.557695,36.985078],[-121.557633,36.985083],[-121.557562,36.985083],[-121.557491,36.985081],[-121.557415,36.985076],[-121.557368,36.985077],[-121.557318,36.985081],[-121.557265,36.985092],[-121.557208,36.985113],[-121.557164,36.985135]]}},{"type":"Feature","properties":{"osm_id":8936513,"name":"Miller Avenue","ref":null,"highway":"tertiary"},"geometry":{"type":"LineString","coordinates":[[-121.574998,36.982628],[-121.575313,36.982728],[-121.575544,36.982756],[-121.575867,36.982757],[-121.576272,36.982759],[-121.576544,36.98278],[-121.576814,36.982835],[-121.577172,36.983004],[-121.578141,36.983461],[-121.578767,36.983921],[-121.579222,36.984243],[-121.579539,36.984404],[-121.579849,36.984497],[-121.580244,36.984579],[-121.580819,36.984636],[-121.581291,36.984606],[-121.582278,36.984504],[-121.583038,36.98445],[-121.583586,36.984339],[-121.584029,36.984082],[-121.585138,36.98317],[-121.585379,36.983074],[-121.585585,36.98304],[-121.58584,36.983057],[-121.586149,36.983146],[-121.58634,36.983472],[-121.586597,36.983904],[-121.586683,36.984123],[-121.586752,36.984377],[-121.586692,36.984706],[-121.586692,36.984994],[-121.586778,36.985289],[-121.586906,36.985659],[-121.587136,36.986156],[-121.58746,36.986533],[-121.587699,36.986832],[-121.587753,36.986961]]}},{"type":"Feature","properties":{"osm_id":8936523,"name":"Miller Avenue","ref":null,"highway":"tertiary"},"geometry":{"type":"LineString","coordinates":[[-121.581919,37.000295],[-121.581883,37.000847],[-121.581862,37.002148],[-121.581867,37.002985],[-121.581846,37.003962],[-121.581845,37.004803],[-121.581822,37.006593],[-121.581788,37.008304],[-121.581786,37.008392],[-121.581782,37.008518],[-121.581758,37.010167],[-121.581737,37.011257],[-121.581726,37.011867],[-121.581717,37.012304],[-121.581716,37.012415],[-121.58171,37.012703],[-121.581707,37.01291],[-121.581707,37.013012],[-121.581705,37.013232],[-121.581704,37.013322],[-121.581698,37.013439]]}},{"type":"Feature","properties":{"osm_id":8937810,"name":"West 10th Street","ref":null,"highway":"tertiary"},"geometry":{"type":"LineString","coordinates":[[-121.580353,36.995687],[-121.580292,36.995691],[-121.580232,36.995702],[-121.580175,36.995721],[-121.580117,36.995748],[-121.580059,36.995783],[-121.580011,36.99582],[-121.579877,36.995932],[-121.579774,36.996013],[-121.579674,36.996085],[-121.579578,36.996147],[-121.579473,36.99621],[-121.579364,36.99627],[-121.579266,36.99632],[-121.57916,36.996369],[-121.579109,36.996391]]}},{"type":"Feature","properties":{"osm_id":8944038,"name":"Welburn Avenue","ref":null,"highway":"secondary"},"geometry":{"type":"LineString","coordinates":[[-121.575483,37.019379],[-121.575843,37.019371],[-121.575976,37.019369],[-121.576247,37.019365],[-121.576302,37.019364],[-121.576369,37.019364],[-121.576387,37.019364],[-121.576611,37.019359],[-121.57683,37.019318],[-121.576957,37.01928],[-121.577081,37.019243]]}},{"type":"Feature","properties":{"osm_id":8952830,"name":"East 10th Street","ref":null,"highway":"secondary"},"geometry":{"type":"LineString","coordinates":[[-121.563321,37.001014],[-121.563566,37.000944],[-121.564006,37.000818],[-121.564345,37.000721]]}},{"type":"Feature","properties":{"osm_id":8966584,"name":"Leavesley Road","ref":"CA 152","highway":"primary"},"geometry":{"type":"LineString","coordinates":[[-121.564882,37.023114],[-121.565158,37.023011],[-121.565229,37.022985],[-121.565307,37.022957],[-121.565378,37.022932],[-121.565462,37.022904]]}},{"type":"Feature","properties":{"osm_id":8966586,"name":"Leavesley Road","ref":null,"highway":"residential"},"geometry":{"type":"LineString","coordinates":[[-121.530071,37.031273],[-121.528796,37.032185],[-121.528552,37.03236],[-121.528032,37.032733],[-121.527698,37.032957],[-121.527515,37.033079],[-121.52617,37.033981],[-121.525539,37.034403],[-121.525208,37.034625],[-121.524159,37.035328],[-121.523637,37.035678],[-121.522724,37.036311],[-121.521649,37.037056],[-121.520761,37.037633],[-121.51971,37.038316],[-121.519578,37.038402],[-121.519216,37.038653],[-121.517016,37.04017]]}},{"type":"Feature","properties":{"osm_id":8966589,"name":"Leavesley Road","ref":null,"highway":"unclassified"},"geometry":{"type":"LineString","coordinates":[[-121.517808,37.041821],[-121.517437,37.04209],[-121.517036,37.042487],[-121.51676,37.042662],[-121.516454,37.042774],[-121.516316,37.042959],[-121.516118,37.043136],[-121.515863,37.043454],[-121.515744,37.043628],[-121.515657,37.043702],[-121.515557,37.04374],[-121.515431,37.043779],[-121.515304,37.043801],[-121.515189,37.043966],[-121.515172,37.044056],[-121.515189,37.044277],[-121.515117,37.044487],[-121.514909,37.044874],[-121.514668,37.045141],[-121.514403,37.045365],[-121.514146,37.045546],[-121.513732,37.04569],[-121.513226,37.045704],[-121.51284,37.045738],[-121.511929,37.046002],[-121.511747,37.046063],[-121.511633,37.046237],[-121.511619,37.046301],[-121.511554,37.0466],[-121.511524,37.046835],[-121.511438,37.047071],[-121.510993,37.047406],[-121.510824,37.047532],[-121.510683,37.047688],[-121.510491,37.047925],[-121.510279,37.048454],[-121.509959,37.049156],[-121.509924,37.04925],[-121.509911,37.049329],[-121.509931,37.049371],[-121.509966,37.049452],[-121.510054,37.049503],[-121.510133,37.049521],[-121.510218,37.049509],[-121.510322,37.049454],[-121.510503,37.049219],[-121.5108,37.048805],[-121.510975,37.04872],[-121.511138,37.0487],[-121.511279,37.048696],[-121.511409,37.048732],[-121.511468,37.048794],[-121.51149,37.048861],[-121.511137,37.049365],[-121.511003,37.049657],[-121.510947,37.049859],[-121.510933,37.050042],[-121.510975,37.050169],[-121.511068,37.050311],[-121.511225,37.050534],[-121.511311,37.050687],[-121.511341,37.050844],[-121.511332,37.051296],[-121.511362,37.05145],[-121.511429,37.051602],[-121.511837,37.051903],[-121.511942,37.052062],[-121.512072,37.052186],[-121.512231,37.052276],[-121.512403,37.052317],[-121.512598,37.052347],[-121.512901,37.052362],[-121.513185,37.052347],[-121.513387,37.052293],[-121.513592,37.05219],[-121.513748,37.052107],[-121.513909,37.052067],[-121.514055,37.052039],[-121.514125,37.05204],[-121.514203,37.052042],[-121.514436,37.052072],[-121.514667,37.05219],[-121.514952,37.052477],[-121.515077,37.052574],[-121.515283,37.05281],[-121.516338,37.054019],[-121.516607,37.054305],[-121.516922,37.05467],[-121.516979,37.0549],[-121.516973,37.055142],[-121.517276,37.055596],[-121.517814,37.05628],[-121.517952,37.056647],[-121.517994,37.056818],[-121.518072,37.056938],[-121.518785,37.05783],[-121.519463,37.05878]]}},{"type":"Feature","properties":{"osm_id":8969295,"name":"Princevalle Street","ref":null,"highway":"tertiary"},"geometry":{"type":"LineString","coordinates":[[-121.570497,36.993338],[-121.570525,36.993495],[-121.570552,36.993602],[-121.570602,36.993705],[-121.570687,36.99383],[-121.570791,36.993938],[-121.571076,36.994129],[-121.571439,36.994208],[-121.571805,36.994259],[-121.572251,36.994355],[-121.572518,36.994513],[-121.57272,36.9947]]}},{"type":"Feature","properties":{"osm_id":27216559,"name":"South Valley Freeway","ref":"US 101","highway":"motorway"},"geometry":{"type":"LineString","coordinates":[[-121.555338,36.975928],[-121.55541,36.976106]]}},{"type":"Feature","properties":{"osm_id":30142885,"name":"Leavesley Road","ref":"G9","highway":"secondary"},"geometry":{"type":"LineString","coordinates":[[-121.565897,37.022583],[-121.565503,37.0227],[-121.565426,37.022724],[-121.565348,37.022748],[-121.565272,37.022774],[-121.565195,37.022801],[-121.56512,37.02283],[-121.565043,37.022861],[-121.564962,37.022894],[-121.564881,37.022929],[-121.564797,37.022968]]}},{"type":"Feature","properties":{"osm_id":36020207,"name":"South Valley Freeway","ref":"US 101","highway":"motorway"},"geometry":{"type":"LineString","coordinates":[[-121.566959,37.022592],[-121.566689,37.022092]]}},{"type":"Feature","properties":{"osm_id":36020208,"name":"South Valley Freeway","ref":"US 101","highway":"motorway"},"geometry":{"type":"LineString","coordinates":[[-121.566361,37.022224],[-121.566634,37.022723]]}},{"type":"Feature","properties":{"osm_id":36020827,"name":"South Valley Freeway","ref":"US 101","highway":"motorway"},"geometry":{"type":"LineString","coordinates":[[-121.5573,36.991694],[-121.556486,36.995889],[-121.556156,36.997583],[-121.556106,36.997843],[-121.556059,36.998106],[-121.556015,36.998367],[-121.55598,36.998628],[-121.555922,36.999167],[-121.555892,36.99983]]}},{"type":"Feature","properties":{"osm_id":36020828,"name":"South Valley Freeway","ref":"US 101","highway":"motorway"},"geometry":{"type":"LineString","coordinates":[[-121.557376,36.991305],[-121.5573,36.991694]]}},{"type":"Feature","properties":{"osm_id":36020829,"name":"South Valley Freeway","ref":"US 101","highway":"motorway"},"geometry":{"type":"LineString","coordinates":[[-121.557746,36.991312],[-121.557907,36.990508],[-121.558046,36.989771]]}},{"type":"Feature","properties":{"osm_id":36020830,"name":"South Valley Freeway","ref":"US 101","highway":"motorway"},"geometry":{"type":"LineString","coordinates":[[-121.557671,36.9917],[-121.557746,36.991312]]}},{"type":"Feature","properties":{"osm_id":36020871,"name":"South Valley Freeway","ref":"US 101","highway":"motorway"},"geometry":{"type":"LineString","coordinates":[[-121.557747,36.989404],[-121.557376,36.991305]]}},{"type":"Feature","properties":{"osm_id":36020901,"name":"South Valley Freeway","ref":"US 101","highway":"motorway"},"geometry":{"type":"LineString","coordinates":[[-121.557894,36.988645],[-121.557747,36.989404]]}},{"type":"Feature","properties":{"osm_id":36020964,"name":"South Valley Freeway","ref":"US 101","highway":"motorway"},"geometry":{"type":"LineString","coordinates":[[-121.558046,36.989771],[-121.558194,36.989009]]}},{"type":"Feature","properties":{"osm_id":36020965,"name":"South Valley Freeway","ref":"US 101","highway":"motorway"},"geometry":{"type":"LineString","coordinates":[[-121.558194,36.989009],[-121.558536,36.987254]]}},{"type":"Feature","properties":{"osm_id":36021094,"name":"South Valley Freeway","ref":"US 101","highway":"motorway"},"geometry":{"type":"LineString","coordinates":[[-121.5582,36.987073],[-121.558108,36.987544]]}},{"type":"Feature","properties":{"osm_id":36021095,"name":"South Valley Freeway","ref":"US 101","highway":"motorway"},"geometry":{"type":"LineString","coordinates":[[-121.558286,36.986631],[-121.5582,36.987073]]}},{"type":"Feature","properties":{"osm_id":57845116,"name":"Welburn Avenue","ref":null,"highway":"tertiary"},"geometry":{"type":"LineString","coordinates":[[-121.599654,37.017774],[-121.599757,37.017768],[-121.599891,37.017749],[-121.599981,37.017735],[-121.600245,37.017681],[-121.600389,37.017668],[-121.60076,37.017671],[-121.601191,37.017659],[-121.601267,37.017649],[-121.60132,37.017638],[-121.601687,37.017638],[-121.602132,37.017671],[-121.602142,37.017672],[-121.60248,37.017702],[-121.603049,37.017703],[-121.603453,37.017708],[-121.603792,37.017758],[-121.604142,37.017857],[-121.604373,37.017987],[-121.604392,37.018],[-121.60471,37.018221],[-121.605029,37.018447],[-121.605076,37.01852],[-121.60512,37.018648],[-121.60518,37.018969],[-121.605268,37.019274],[-121.605374,37.019556],[-121.605503,37.019687],[-121.605622,37.019877],[-121.605665,37.020017],[-121.605689,37.02015],[-121.60571,37.020542]]}},{"type":"Feature","properties":{"osm_id":117809217,"name":"South Valley Freeway","ref":"US 101","highway":"trunk"},"geometry":{"type":"LineString","coordinates":[[-121.55554,36.975814],[-121.55534,36.975314],[-121.555288,36.975186],[-121.555236,36.975058],[-121.555187,36.974933],[-121.555138,36.974806],[-121.555088,36.974679],[-121.55504,36.974551],[-121.554992,36.974421],[-121.554945,36.974296],[-121.5549,36.974167],[-121.554855,36.974038],[-121.55481,36.973911],[-121.554767,36.973779],[-121.554725,36.973653],[-121.554684,36.973523],[-121.554645,36.973395],[-121.554605,36.973264],[-121.554566,36.973135],[-121.554545,36.97306],[-121.554183,36.971844],[-121.553876,36.97081],[-121.553307,36.968879],[-121.5533,36.968856],[-121.55292,36.967567],[-121.5525,36.966142],[-121.552195,36.965108],[-121.551889,36.964071],[-121.551431,36.962517],[-121.551393,36.962388],[-121.551358,36.962259],[-121.551324,36.962129],[-121.551296,36.961997],[-121.551272,36.961868],[-121.551249,36.961734],[-121.551229,36.961603],[-121.551213,36.961471],[-121.551197,36.961338],[-121.551186,36.961207],[-121.551177,36.961074],[-121.551174,36.960941],[-121.551175,36.960807],[-121.551176,36.960676],[-121.551181,36.96054],[-121.55119,36.960408],[-121.551203,36.960275],[-121.551219,36.960145],[-121.551238,36.960011],[-121.551257,36.959877],[-121.551275,36.959747],[-121.551295,36.959614],[-121.551316,36.959483],[-121.551593,36.957755],[-121.551888,36.95592],[-121.552121,36.954475],[-121.552371,36.952896],[-121.552664,36.951047],[-121.552748,36.950518],[-121.55285,36.949857],[-121.55287,36.949724],[-121.552891,36.949592],[-121.552908,36.949462],[-121.552924,36.94933],[-121.552939,36.949198],[-121.552952,36.949067],[-121.552966,36.948934],[-121.552978,36.948803],[-121.55299,36.948667],[-121.553,36.948535],[-121.553008,36.948405],[-121.553015,36.948271],[-121.553021,36.94813],[-121.553025,36.948005],[-121.553029,36.947872],[-121.553032,36.947738],[-121.553034,36.947607],[-121.553035,36.947474],[-121.553033,36.94734],[-121.553032,36.947209],[-121.55303,36.947076],[-121.553027,36.946943],[-121.553023,36.946811],[-121.552991,36.945879],[-121.552891,36.942955],[-121.552829,36.941098],[-121.552766,36.939237],[-121.552692,36.937111],[-121.552689,36.936978],[-121.552682,36.936845],[-121.552673,36.93671],[-121.55266,36.936578],[-121.552644,36.936445],[-121.552626,36.936315],[-121.552606,36.936181],[-121.552584,36.936049],[-121.552559,36.935917],[-121.55253,36.935786],[-121.552499,36.935655],[-121.552466,36.935524],[-121.552431,36.935399],[-121.552392,36.935266],[-121.55235,36.935137],[-121.552308,36.935012],[-121.552261,36.934882],[-121.552213,36.934756],[-121.552161,36.93463],[-121.552108,36.934505],[-121.552051,36.93438],[-121.551993,36.934257],[-121.551932,36.934134],[-121.551867,36.934012],[-121.5518,36.933891],[-121.551731,36.93377],[-121.551661,36.933652],[-121.551588,36.933532],[-121.551513,36.933415],[-121.551436,36.933298],[-121.551355,36.933182],[-121.551273,36.933067],[-121.551188,36.932952],[-121.5511,36.932839],[-121.55101,36.932728],[-121.550919,36.932617],[-121.550827,36.932506],[-121.550736,36.932396],[-121.550553,36.932176],[-121.548986,36.930298],[-121.548898,36.930192],[-121.548809,36.930083],[-121.54872,36.929972],[-121.54863,36.929857],[-121.548585,36.929797]]}},{"type":"Feature","properties":{"osm_id":118632648,"name":"South Valley Freeway","ref":"US 101","highway":"motorway"},"geometry":{"type":"LineString","coordinates":[[-121.558536,36.987254],[-121.558621,36.986812]]}},{"type":"Feature","properties":{"osm_id":118632670,"name":"South Valley Freeway","ref":"US 101","highway":"motorway"},"geometry":{"type":"LineString","coordinates":[[-121.558621,36.986812],[-121.558789,36.985947],[-121.558818,36.985796],[-121.558837,36.985682],[-121.558858,36.985549],[-121.558876,36.985418],[-121.558892,36.98529],[-121.558904,36.985156],[-121.558915,36.985026],[-121.558922,36.984892],[-121.558927,36.984762],[-121.55893,36.984634],[-121.55893,36.984509],[-121.558927,36.984361],[-121.558922,36.984229],[-121.558914,36.9841],[-121.558904,36.98397],[-121.558891,36.983837],[-121.558876,36.983706],[-121.558857,36.983575],[-121.558835,36.983442],[-121.558812,36.983312],[-121.558786,36.983177],[-121.558758,36.983044],[-121.558729,36.982923],[-121.558694,36.982792]]}},{"type":"Feature","properties":{"osm_id":123741526,"name":"South Valley Freeway","ref":"US 101","highway":"motorway"},"geometry":{"type":"LineString","coordinates":[[-121.55771,36.981173],[-121.558059,36.982043],[-121.55812,36.982197],[-121.558171,36.982334],[-121.558284,36.982666]]}},{"type":"Feature","properties":{"osm_id":123741533,"name":"South Valley Freeway","ref":"US 101","highway":"motorway"},"geometry":{"type":"LineString","coordinates":[[-121.557981,36.981026],[-121.557859,36.980781],[-121.557742,36.980538],[-121.557504,36.980059],[-121.557268,36.979573],[-121.557024,36.979077],[-121.556782,36.978578],[-121.556661,36.97833],[-121.556541,36.978081],[-121.55642,36.977834],[-121.556301,36.977588],[-121.556181,36.977338],[-121.556066,36.977089],[-121.555954,36.976831],[-121.555852,36.976588]]}},{"type":"Feature","properties":{"osm_id":144801735,"name":"Miller Avenue","ref":null,"highway":"tertiary"},"geometry":{"type":"LineString","coordinates":[[-121.587977,36.987325],[-121.587888,36.987147],[-121.587818,36.987026],[-121.587753,36.986961]]}},{"type":"Feature","properties":{"osm_id":144801744,"name":"Miller Avenue","ref":null,"highway":"tertiary"},"geometry":{"type":"LineString","coordinates":[[-121.587753,36.986961],[-121.587754,36.98702],[-121.58776,36.987055],[-121.587763,36.987094],[-121.587759,36.987122],[-121.587752,36.987154],[-121.587718,36.987205],[-121.587661,36.987293]]}},{"type":"Feature","properties":{"osm_id":157459639,"name":"Monterey Street","ref":null,"highway":"primary"},"geometry":{"type":"LineString","coordinates":[[-121.576163,37.022057],[-121.57659,37.022891],[-121.577265,37.02421],[-121.577348,37.024374],[-121.577534,37.024729],[-121.577646,37.024938],[-121.577972,37.025539],[-121.578089,37.025752],[-121.578106,37.025784]]}},{"type":"Feature","properties":{"osm_id":157807071,"name":"Monterey Street","ref":"CA 152","highway":"primary"},"geometry":{"type":"LineString","coordinates":[[-121.572381,37.014652],[-121.572375,37.014768],[-121.572535,37.015065],[-121.573463,37.016788],[-121.573622,37.017094],[-121.573646,37.017144],[-121.573759,37.017372],[-121.57378,37.017415]]}},{"type":"Feature","properties":{"osm_id":157807075,"name":"South Valley Freeway","ref":"US 101","highway":"motorway"},"geometry":{"type":"LineString","coordinates":[[-121.555892,36.99983],[-121.555892,36.999944],[-121.55589,37.000116],[-121.555894,37.000209],[-121.555901,37.000475],[-121.555914,37.000736],[-121.555935,37.000995],[-121.555959,37.00126],[-121.555992,37.001521],[-121.556031,37.001787],[-121.556076,37.002048],[-121.556127,37.002305],[-121.556184,37.00257],[-121.556247,37.002826],[-121.55632,37.003098],[-121.556391,37.003339],[-121.556472,37.003594],[-121.556558,37.003846],[-121.556653,37.004101],[-121.556753,37.004355],[-121.55686,37.004606]]}},{"type":"Feature","properties":{"osm_id":157807076,"name":"South Valley Freeway","ref":"US 101","highway":"motorway"},"geometry":{"type":"LineString","coordinates":[[-121.558279,37.006556],[-121.55775,37.005609],[-121.557622,37.005369],[-121.557492,37.005119],[-121.557371,37.004877],[-121.557259,37.00463],[-121.557149,37.004379],[-121.557047,37.004128],[-121.55695,37.003875],[-121.556861,37.003627],[-121.556775,37.003367],[-121.556699,37.003107],[-121.556626,37.002851],[-121.556562,37.002596],[-121.556502,37.002329],[-121.556451,37.002072],[-121.556404,37.001812],[-121.556364,37.001548],[-121.55633,37.001282],[-121.556302,37.00102],[-121.556281,37.000758],[-121.556266,37.000492],[-121.556259,37.000234],[-121.556257,36.999965],[-121.556262,36.999702],[-121.556271,36.999439],[-121.55629,36.999171],[-121.556315,36.998909],[-121.556346,36.998645],[-121.556381,36.998386],[-121.556425,36.998121],[-121.556475,36.997855],[-121.556524,36.997599],[-121.556837,36.995982],[-121.557671,36.9917]]}},{"type":"Feature","properties":{"osm_id":157807077,"name":"South Valley Freeway","ref":"US 101","highway":"motorway"},"geometry":{"type":"LineString","coordinates":[[-121.566689,37.022092],[-121.563721,37.01662]]}},{"type":"Feature","properties":{"osm_id":157807078,"name":"South Valley Freeway","ref":"US 101","highway":"motorway"},"geometry":{"type":"LineString","coordinates":[[-121.563985,37.017846],[-121.566361,37.022224]]}},{"type":"Feature","properties":{"osm_id":157807079,"name":"South Valley Freeway","ref":"US 101;CA 152","highway":"motorway"},"geometry":{"type":"LineString","coordinates":[[-121.55839,37.007522],[-121.559438,37.009458]]}},{"type":"Feature","properties":{"osm_id":157807080,"name":"South Valley Freeway","ref":"US 101;CA 152","highway":"motorway"},"geometry":{"type":"LineString","coordinates":[[-121.563721,37.01662],[-121.560246,37.010211]]}},{"type":"Feature","properties":{"osm_id":158968786,"name":"Leavesley Road","ref":"CA 152","highway":"primary"},"geometry":{"type":"LineString","coordinates":[[-121.574349,37.019414],[-121.573608,37.019693],[-121.573391,37.019774],[-121.572731,37.020024],[-121.571864,37.020354],[-121.571686,37.020421],[-121.57151,37.020488],[-121.571351,37.020549],[-121.571109,37.02064],[-121.570765,37.020771],[-121.570184,37.020993],[-121.569972,37.021073],[-121.569819,37.02113],[-121.569429,37.02128],[-121.569257,37.021345]]}},{"type":"Feature","properties":{"osm_id":158968787,"name":"Leavesley Road","ref":"G9","highway":"secondary"},"geometry":{"type":"LineString","coordinates":[[-121.561701,37.024344],[-121.558292,37.025653],[-121.55771,37.025873],[-121.557292,37.026027],[-121.554673,37.026989],[-121.552413,37.027833],[-121.545061,37.030659],[-121.544724,37.030789],[-121.543893,37.031108]]}},{"type":"Feature","properties":{"osm_id":164553615,"name":"South Valley Freeway","ref":"US 101","highway":"motorway"},"geometry":{"type":"LineString","coordinates":[[-121.586891,37.064328],[-121.586665,37.063842],[-121.586352,37.063083],[-121.583324,37.056118],[-121.582602,37.054454],[-121.580515,37.049644],[-121.577863,37.043531],[-121.577216,37.042047],[-121.576997,37.041538],[-121.576784,37.041047],[-121.576559,37.040548],[-121.576333,37.040066],[-121.576087,37.039552],[-121.575853,37.039075],[-121.575612,37.038595],[-121.575351,37.038094],[-121.575094,37.037613],[-121.574845,37.037152],[-121.572159,37.032205],[-121.569132,37.026602]]}},{"type":"Feature","properties":{"osm_id":164553620,"name":"South Valley Freeway","ref":"US 101","highway":"motorway"},"geometry":{"type":"LineString","coordinates":[[-121.586685,37.064714],[-121.588352,37.068554],[-121.588664,37.069279],[-121.588883,37.069767],[-121.589107,37.070266],[-121.589339,37.07076],[-121.589581,37.071254],[-121.589832,37.071754],[-121.590077,37.072233],[-121.590335,37.072728],[-121.590617,37.073251],[-121.593609,37.07868],[-121.597466,37.085687],[-121.600792,37.091726],[-121.601161,37.092396],[-121.603657,37.096922],[-121.603875,37.09731],[-121.604081,37.097658],[-121.604318,37.098025],[-121.604551,37.098372],[-121.604808,37.098729],[-121.605079,37.099088],[-121.605343,37.099418],[-121.605637,37.099768],[-121.605927,37.100095],[-121.606211,37.1004],[-121.606527,37.10072],[-121.606859,37.101051],[-121.607177,37.101344],[-121.607534,37.101655],[-121.60787,37.101939],[-121.608213,37.102215],[-121.611499,37.104786],[-121.620087,37.111507],[-121.620466,37.111814],[-121.620789,37.112087],[-121.621134,37.11239],[-121.621443,37.112675],[-121.621736,37.11296],[-121.622035,37.11327],[-121.622336,37.113588],[-121.622619,37.113905],[-121.622896,37.114232],[-121.623166,37.114569],[-121.623406,37.114885],[-121.623657,37.115236],[-121.623878,37.115568],[-121.624096,37.115909],[-121.624302,37.116243],[-121.626527,37.120003],[-121.628112,37.12268],[-121.630749,37.127163],[-121.633812,37.132323],[-121.634954,37.134257],[-121.635178,37.134626],[-121.635407,37.134998],[-121.635641,37.135352],[-121.635872,37.135686],[-121.636118,37.136037],[-121.636356,37.136352],[-121.636649,37.136725],[-121.636921,37.13706],[-121.637208,37.137397],[-121.6375,37.137724],[-121.637798,37.138047],[-121.638092,37.138353],[-121.642368,37.142751],[-121.648534,37.149097],[-121.653018,37.153719]]}},{"type":"Feature","properties":{"osm_id":164553621,"name":"Leavesley Road","ref":"G9","highway":"secondary"},"geometry":{"type":"LineString","coordinates":[[-121.561701,37.024344],[-121.561892,37.024286],[-121.562512,37.024096]]}},{"type":"Feature","properties":{"osm_id":164778987,"name":"South Valley Freeway","ref":"US 101","highway":"motorway"},"geometry":{"type":"LineString","coordinates":[[-121.55541,36.976106],[-121.555559,36.97647]]}},{"type":"Feature","properties":{"osm_id":164778988,"name":"South Valley Freeway","ref":"US 101","highway":"motorway"},"geometry":{"type":"LineString","coordinates":[[-121.555852,36.976588],[-121.555703,36.976227]]}},{"type":"Feature","properties":{"osm_id":164778989,"name":"South Valley Freeway","ref":"US 101","highway":"motorway"},"geometry":{"type":"LineString","coordinates":[[-121.555703,36.976227],[-121.55554,36.975814]]}},{"type":"Feature","properties":{"osm_id":164778990,"name":"South Valley Freeway","ref":"US 101","highway":"motorway"},"geometry":{"type":"LineString","coordinates":[[-121.555559,36.97647],[-121.555647,36.976683],[-121.555756,36.976935],[-121.555866,36.977185],[-121.555982,36.977436],[-121.5561,36.977686],[-121.55622,36.977934],[-121.556759,36.979051],[-121.556878,36.979299],[-121.556996,36.979548],[-121.557113,36.979796],[-121.557229,36.980048],[-121.557339,36.980295],[-121.557448,36.980545],[-121.557555,36.980798],[-121.55766,36.981053],[-121.55771,36.981173]]}},{"type":"Feature","properties":{"osm_id":165266505,"name":"Monterey Road","ref":null,"highway":"secondary"},"geometry":{"type":"LineString","coordinates":[[-121.565818,37.000305],[-121.565766,37.00019],[-121.565723,37.000093],[-121.565669,36.999968],[-121.565589,36.999789],[-121.5655,36.999593],[-121.565195,36.998916],[-121.564982,36.998433],[-121.564665,36.997743],[-121.564547,36.997488],[-121.563877,36.996026],[-121.563634,36.995504],[-121.563436,36.995069],[-121.563344,36.994867],[-121.56308,36.99429],[-121.562711,36.993476],[-121.562596,36.993224],[-121.562462,36.992913],[-121.562308,36.99256],[-121.56219,36.992249],[-121.561952,36.991666],[-121.561946,36.99165],[-121.561921,36.991586]]}},{"type":"Feature","properties":{"osm_id":165266506,"name":"Monterey Road","ref":null,"highway":"secondary"},"geometry":{"type":"LineString","coordinates":[[-121.559103,36.987378],[-121.559176,36.987419],[-121.559246,36.987457],[-121.559455,36.987568],[-121.559594,36.98764],[-121.559658,36.987675],[-121.559722,36.987711],[-121.559793,36.987751],[-121.559858,36.987792],[-121.559923,36.987835],[-121.559982,36.98788],[-121.560035,36.987925],[-121.560092,36.987977],[-121.560145,36.988033],[-121.560168,36.98806],[-121.560189,36.988087],[-121.560234,36.988144],[-121.560273,36.988197],[-121.56031,36.988255],[-121.560348,36.988319],[-121.560379,36.988381],[-121.560408,36.988444],[-121.560436,36.988509],[-121.56046,36.988567],[-121.560488,36.988635],[-121.560498,36.988663],[-121.560537,36.988759],[-121.560733,36.989248],[-121.560929,36.989749],[-121.561027,36.99],[-121.561075,36.990125],[-121.561127,36.990251],[-121.561202,36.990423],[-121.561255,36.990547],[-121.56131,36.990674],[-121.561364,36.990802],[-121.561419,36.99093],[-121.561612,36.991395],[-121.561617,36.991406],[-121.561657,36.991502]]}},{"type":"Feature","properties":{"osm_id":165266507,"name":"Monterey Street","ref":null,"highway":"secondary"},"geometry":{"type":"LineString","coordinates":[[-121.568688,37.006802],[-121.568798,37.007049],[-121.569293,37.008151]]}},{"type":"Feature","properties":{"osm_id":178085542,"name":"Leavesley Road","ref":"G9","highway":"primary"},"geometry":{"type":"LineString","coordinates":[[-121.568103,37.021783],[-121.567947,37.02184],[-121.567874,37.021867],[-121.5678,37.021893],[-121.567644,37.021947],[-121.567523,37.021989],[-121.567316,37.022061]]}},{"type":"Feature","properties":{"osm_id":184081682,"name":"South Valley Freeway","ref":"US 101","highway":"motorway"},"geometry":{"type":"LineString","coordinates":[[-121.558284,36.982666],[-121.558344,36.982907],[-121.558367,36.98298],[-121.558383,36.983035],[-121.558392,36.983072],[-121.558403,36.983121],[-121.558413,36.983167],[-121.55842,36.983208],[-121.558432,36.983261],[-121.558449,36.983345],[-121.558464,36.983425],[-121.558474,36.98348],[-121.558494,36.98361],[-121.558513,36.983739],[-121.558529,36.983874],[-121.558541,36.984007],[-121.558551,36.984137],[-121.558558,36.984273],[-121.558562,36.9844],[-121.558564,36.984532],[-121.558563,36.984665],[-121.55856,36.984794],[-121.558554,36.98493],[-121.558545,36.985062],[-121.558534,36.985192],[-121.558519,36.985328],[-121.558503,36.985459],[-121.558483,36.98559],[-121.558463,36.985715],[-121.558437,36.985848],[-121.558286,36.986631]]}},{"type":"Feature","properties":{"osm_id":184081684,"name":"South Valley Freeway","ref":"US 101","highway":"motorway"},"geometry":{"type":"LineString","coordinates":[[-121.558694,36.982792],[-121.558658,36.982665],[-121.55862,36.982538],[-121.558577,36.982405],[-121.558533,36.982279],[-121.558487,36.982149],[-121.558438,36.982025]]}},{"type":"Feature","properties":{"osm_id":207380307,"name":"South Valley Freeway","ref":"US 101;CA 152","highway":"motorway"},"geometry":{"type":"LineString","coordinates":[[-121.560246,37.010211],[-121.559951,37.009668]]}},{"type":"Feature","properties":{"osm_id":207380308,"name":"South Valley Freeway","ref":"US 101;CA 152","highway":"motorway"},"geometry":{"type":"LineString","coordinates":[[-121.559438,37.009458],[-121.559674,37.009892]]}},{"type":"Feature","properties":{"osm_id":207380309,"name":"South Valley Freeway","ref":"US 101;CA 152","highway":"motorway"},"geometry":{"type":"LineString","coordinates":[[-121.559674,37.009892],[-121.563985,37.017846]]}},{"type":"Feature","properties":{"osm_id":207380310,"name":"South Valley Freeway","ref":"US 101;CA 152","highway":"motorway"},"geometry":{"type":"LineString","coordinates":[[-121.559951,37.009668],[-121.559522,37.008869]]}},{"type":"Feature","properties":{"osm_id":255939222,"name":"Princevalle Street","ref":null,"highway":"tertiary"},"geometry":{"type":"LineString","coordinates":[[-121.572877,36.995015],[-121.573062,36.995424],[-121.573095,36.995495],[-121.573128,36.995568]]}},{"type":"Feature","properties":{"osm_id":282200904,"name":"Miller Avenue","ref":null,"highway":"tertiary"},"geometry":{"type":"LineString","coordinates":[[-121.587634,36.992413],[-121.587565,36.992494],[-121.587368,36.992725],[-121.587296,36.992828],[-121.587256,36.992915],[-121.587226,36.993003],[-121.587216,36.993064],[-121.587211,36.993094],[-121.587208,36.993155],[-121.587217,36.993235],[-121.587238,36.99334],[-121.587297,36.993487],[-121.587399,36.993694],[-121.587485,36.993857],[-121.587606,36.994141],[-121.587634,36.994228],[-121.587639,36.994343],[-121.587636,36.994463],[-121.58759,36.99479]]}},{"type":"Feature","properties":{"osm_id":282200905,"name":"Miller Avenue","ref":null,"highway":"tertiary"},"geometry":{"type":"LineString","coordinates":[[-121.58759,36.99479],[-121.587564,36.99501],[-121.587505,36.995444],[-121.587462,36.995768],[-121.587423,36.995884],[-121.587365,36.995989],[-121.587174,36.996207],[-121.58713,36.996258],[-121.586473,36.996984],[-121.586046,36.997464],[-121.585552,36.998062]]}},{"type":"Feature","properties":{"osm_id":313990930,"name":"Leavesley Road","ref":"CA 152","highway":"primary"},"geometry":{"type":"LineString","coordinates":[[-121.565462,37.022904],[-121.565923,37.022766],[-121.566081,37.022716],[-121.566233,37.022663],[-121.566384,37.022607],[-121.566756,37.022465],[-121.567264,37.022271],[-121.567392,37.022221]]}},{"type":"Feature","properties":{"osm_id":349611814,"name":"Monterey Street","ref":"CA 152","highway":"primary"},"geometry":{"type":"LineString","coordinates":[[-121.57488,37.019436],[-121.574835,37.019345]]}},{"type":"Feature","properties":{"osm_id":358239350,"name":"Leavesley Road","ref":"G9","highway":"secondary"},"geometry":{"type":"LineString","coordinates":[[-121.563824,37.023381],[-121.563461,37.023534],[-121.563236,37.02363]]}},{"type":"Feature","properties":{"osm_id":358239351,"name":"Leavesley Road","ref":"G9","highway":"secondary"},"geometry":{"type":"LineString","coordinates":[[-121.562207,37.024056],[-121.561701,37.024344]]}},{"type":"Feature","properties":{"osm_id":358239352,"name":"Leavesley Road","ref":"G9","highway":"secondary"},"geometry":{"type":"LineString","coordinates":[[-121.564143,37.023414],[-121.564261,37.023363],[-121.56437,37.023318],[-121.564437,37.023289],[-121.564509,37.023258],[-121.564642,37.023206],[-121.564882,37.023114]]}},{"type":"Feature","properties":{"osm_id":358239353,"name":"Leavesley Road","ref":"G9","highway":"secondary"},"geometry":{"type":"LineString","coordinates":[[-121.563189,37.023828],[-121.563328,37.023765],[-121.563567,37.02366],[-121.56381,37.023556],[-121.564143,37.023414]]}},{"type":"Feature","properties":{"osm_id":358239354,"name":"Leavesley Road","ref":"G9","highway":"secondary"},"geometry":{"type":"LineString","coordinates":[[-121.562512,37.024096],[-121.563036,37.023891],[-121.563189,37.023828]]}},{"type":"Feature","properties":{"osm_id":358239355,"name":"Leavesley Road","ref":"G9","highway":"secondary"},"geometry":{"type":"LineString","coordinates":[[-121.562948,37.023753],[-121.56256,37.023913],[-121.562421,37.02396],[-121.562207,37.024056]]}},{"type":"Feature","properties":{"osm_id":358239356,"name":"Leavesley Road","ref":"G9","highway":"secondary"},"geometry":{"type":"LineString","coordinates":[[-121.564797,37.022968],[-121.564556,37.023072],[-121.564154,37.023245],[-121.563824,37.023381]]}},{"type":"Feature","properties":{"osm_id":358239361,"name":"Monterey Road","ref":null,"highway":"primary"},"geometry":{"type":"LineString","coordinates":[[-121.584502,37.038243],[-121.584796,37.038819],[-121.585712,37.04061],[-121.586147,37.041461],[-121.586193,37.041549],[-121.58632,37.041796],[-121.58674,37.042611],[-121.587118,37.043351],[-121.588514,37.046081],[-121.588813,37.046664],[-121.588945,37.046921],[-121.58953,37.04806]]}},{"type":"Feature","properties":{"osm_id":424992205,"name":"Welburn Avenue","ref":null,"highway":"secondary"},"geometry":{"type":"LineString","coordinates":[[-121.58667,37.016896],[-121.587136,37.016904],[-121.587244,37.01691],[-121.587342,37.016929],[-121.587456,37.016963],[-121.587629,37.017032],[-121.58825,37.017429],[-121.588372,37.01748],[-121.588507,37.017511],[-121.588816,37.017532],[-121.590509,37.017591],[-121.591599,37.017609]]}},{"type":"Feature","properties":{"osm_id":424992448,"name":"Monterey Road","ref":null,"highway":"primary"},"geometry":{"type":"LineString","coordinates":[[-121.596796,37.061717],[-121.598364,37.064566]]}},{"type":"Feature","properties":{"osm_id":424994445,"name":"Welburn Avenue","ref":null,"highway":"secondary"},"geometry":{"type":"LineString","coordinates":[[-121.577081,37.019243],[-121.577227,37.019197],[-121.577561,37.019092],[-121.577982,37.018957],[-121.578049,37.018936],[-121.578429,37.018829],[-121.57878,37.018728],[-121.579433,37.018529],[-121.580058,37.018348],[-121.580664,37.018173],[-121.580976,37.01808],[-121.581252,37.018004],[-121.581855,37.017834],[-121.58269,37.0176],[-121.583538,37.017368],[-121.583969,37.017233],[-121.584132,37.017173],[-121.584278,37.017092],[-121.584339,37.017052],[-121.584425,37.017004],[-121.584514,37.016963],[-121.584612,37.016931],[-121.584754,37.016895],[-121.584901,37.016881],[-121.585059,37.016878],[-121.585473,37.016883],[-121.585886,37.016889],[-121.58667,37.016896]]}},{"type":"Feature","properties":{"osm_id":424994446,"name":"West 10th Street","ref":null,"highway":"tertiary"},"geometry":{"type":"LineString","coordinates":[[-121.578486,36.996605],[-121.578432,36.996621],[-121.578377,36.996637],[-121.577608,36.996862],[-121.576549,36.997172],[-121.576208,36.997272],[-121.57577,36.9974],[-121.57428,36.997836],[-121.574169,36.997869]]}},{"type":"Feature","properties":{"osm_id":424994447,"name":"Princevalle Street","ref":null,"highway":"tertiary"},"geometry":{"type":"LineString","coordinates":[[-121.574169,36.997869],[-121.574219,36.997979],[-121.574345,36.998257],[-121.574446,36.99848],[-121.574511,36.998623],[-121.574674,36.998983],[-121.574827,36.999321],[-121.575057,36.99983],[-121.575153,37.00004],[-121.575262,37.000283],[-121.575371,37.000524],[-121.575458,37.000715],[-121.575488,37.000781]]}},{"type":"Feature","properties":{"osm_id":424994448,"name":"West 10th Street","ref":null,"highway":"tertiary"},"geometry":{"type":"LineString","coordinates":[[-121.574169,36.997869],[-121.574061,36.9979],[-121.572659,36.99831],[-121.571462,36.998659],[-121.570581,36.998916],[-121.570395,36.99897],[-121.570241,36.999015],[-121.570007,36.999084],[-121.569418,36.999256]]}},{"type":"Feature","properties":{"osm_id":424994449,"name":"Princevalle Street","ref":null,"highway":"tertiary"},"geometry":{"type":"LineString","coordinates":[[-121.576384,37.00276],[-121.576529,37.003103],[-121.576871,37.003865],[-121.576958,37.00406],[-121.57709,37.004353]]}},{"type":"Feature","properties":{"osm_id":424994451,"name":"East 10th Street","ref":null,"highway":"secondary"},"geometry":{"type":"LineString","coordinates":[[-121.562631,37.001212],[-121.56239,37.001189],[-121.562052,37.00129],[-121.561604,37.001423],[-121.561563,37.001528]]}},{"type":"Feature","properties":{"osm_id":424994452,"name":"Miller Avenue","ref":null,"highway":"tertiary"},"geometry":{"type":"LineString","coordinates":[[-121.581919,37.000295],[-121.581764,37.000295],[-121.581035,37.000296]]}},{"type":"Feature","properties":{"osm_id":424994453,"name":"Miller Avenue","ref":null,"highway":"tertiary"},"geometry":{"type":"LineString","coordinates":[[-121.585552,36.998062],[-121.585519,36.998105],[-121.584701,36.999283],[-121.584594,36.999442],[-121.584423,36.999636],[-121.584229,36.999858],[-121.584099,36.999976],[-121.583943,37.000063],[-121.583746,37.000149],[-121.58356,37.000208],[-121.583355,37.000231],[-121.582407,37.000274],[-121.581919,37.000295]]}},{"type":"Feature","properties":{"osm_id":499352624,"name":"South Valley Freeway","ref":"US 101","highway":"motorway"},"geometry":{"type":"LineString","coordinates":[[-121.55686,37.004606],[-121.556971,37.004852],[-121.557087,37.005098],[-121.557212,37.005346],[-121.557343,37.005591],[-121.55839,37.007522]]}},{"type":"Feature","properties":{"osm_id":499352625,"name":"Monterey Street","ref":null,"highway":"secondary"},"geometry":{"type":"LineString","coordinates":[[-121.567112,37.003221],[-121.567071,37.003125],[-121.566463,37.001777],[-121.566373,37.001568],[-121.566284,37.001362],[-121.566151,37.001052],[-121.566062,37.000851],[-121.565963,37.000633],[-121.565866,37.000414],[-121.565818,37.000305]]}},{"type":"Feature","properties":{"osm_id":499352688,"name":"Monterey Road","ref":null,"highway":"secondary"},"geometry":{"type":"LineString","coordinates":[[-121.560357,36.988027],[-121.560308,36.987974],[-121.560257,36.987921],[-121.560204,36.987872],[-121.560144,36.987823],[-121.560082,36.987777],[-121.560019,36.987734],[-121.559969,36.987702],[-121.559914,36.98767],[-121.559782,36.987596],[-121.559646,36.987521],[-121.55951,36.987445],[-121.559375,36.987371],[-121.559259,36.987307],[-121.559162,36.987251],[-121.558991,36.987156],[-121.558447,36.986865],[-121.558042,36.986645],[-121.557972,36.986606],[-121.557906,36.986568],[-121.557842,36.986529],[-121.557777,36.986484],[-121.557713,36.986436],[-121.55766,36.986391],[-121.557608,36.986338],[-121.557554,36.986292],[-121.557486,36.98625],[-121.557421,36.98622]]}},{"type":"Feature","properties":{"osm_id":499352692,"name":"Monterey Street","ref":null,"highway":"secondary"},"geometry":{"type":"LineString","coordinates":[[-121.568688,37.006802],[-121.568602,37.006532],[-121.568568,37.006434],[-121.568255,37.005726],[-121.56813,37.005464],[-121.568052,37.005298],[-121.568005,37.005198]]}},{"type":"Feature","properties":{"osm_id":499352698,"name":"Monterey Street","ref":null,"highway":"secondary"},"geometry":{"type":"LineString","coordinates":[[-121.567916,37.005225],[-121.567962,37.005324],[-121.568159,37.005753],[-121.568478,37.006454],[-121.568525,37.006541],[-121.568688,37.006802]]}},{"type":"Feature","properties":{"osm_id":499352708,"name":"East 10th Street","ref":null,"highway":"secondary"},"geometry":{"type":"LineString","coordinates":[[-121.565818,37.000305],[-121.565679,37.000339]]}},{"type":"Feature","properties":{"osm_id":499352709,"name":"Monterey Street","ref":null,"highway":"secondary"},"geometry":{"type":"LineString","coordinates":[[-121.565679,37.000339],[-121.56574,37.000476],[-121.565798,37.000606],[-121.565861,37.000747],[-121.565911,37.00086],[-121.565924,37.000889],[-121.566021,37.00109],[-121.566295,37.001641],[-121.56637,37.001804],[-121.566649,37.002452],[-121.566729,37.002637],[-121.566977,37.003152],[-121.567018,37.003249]]}},{"type":"Feature","properties":{"osm_id":499352710,"name":"East 10th Street","ref":null,"highway":"secondary"},"geometry":{"type":"LineString","coordinates":[[-121.563321,37.001014],[-121.562921,37.001129],[-121.562741,37.001181],[-121.562631,37.001212]]}},{"type":"Feature","properties":{"osm_id":499352711,"name":"East 10th Street","ref":null,"highway":"secondary"},"geometry":{"type":"LineString","coordinates":[[-121.561563,37.001528],[-121.56167,37.001571],[-121.562069,37.001451],[-121.562453,37.001337],[-121.562631,37.001212]]}},{"type":"Feature","properties":{"osm_id":499352712,"name":"East 10th Street","ref":null,"highway":"secondary"},"geometry":{"type":"LineString","coordinates":[[-121.561563,37.001528],[-121.56134,37.001589],[-121.561246,37.001617],[-121.560687,37.001781],[-121.560147,37.001939],[-121.560016,37.001973]]}},{"type":"Feature","properties":{"osm_id":499352713,"name":"East 10th Street","ref":"CA 152","highway":"trunk"},"geometry":{"type":"LineString","coordinates":[[-121.558329,37.002405],[-121.557359,37.002755]]}},{"type":"Feature","properties":{"osm_id":499352714,"name":"East 10th Street","ref":null,"highway":"secondary"},"geometry":{"type":"LineString","coordinates":[[-121.557359,37.002755],[-121.558388,37.002511]]}},{"type":"Feature","properties":{"osm_id":499352715,"name":"East 10th Street","ref":null,"highway":"secondary"},"geometry":{"type":"LineString","coordinates":[[-121.558388,37.002511],[-121.559033,37.002319],[-121.559366,37.002223],[-121.559413,37.002154]]}},{"type":"Feature","properties":{"osm_id":499352716,"name":"East 10th Street","ref":null,"highway":"secondary"},"geometry":{"type":"LineString","coordinates":[[-121.559413,37.002154],[-121.559318,37.002126],[-121.558974,37.002222],[-121.558329,37.002405]]}},{"type":"Feature","properties":{"osm_id":525562621,"name":"Leavesley Road","ref":"G9","highway":"secondary"},"geometry":{"type":"LineString","coordinates":[[-121.563099,37.023688],[-121.562948,37.023753]]}},{"type":"Feature","properties":{"osm_id":527921523,"name":"West 10th Street","ref":null,"highway":"tertiary"},"geometry":{"type":"LineString","coordinates":[[-121.568184,36.999624],[-121.56767,36.999769],[-121.567501,36.999818],[-121.567312,36.999873],[-121.566973,36.999971],[-121.566248,37.00018],[-121.566116,37.000218],[-121.566093,37.000225],[-121.565882,37.000287],[-121.565818,37.000305]]}},{"type":"Feature","properties":{"osm_id":532294715,"name":"West 10th Street","ref":null,"highway":"tertiary"},"geometry":{"type":"LineString","coordinates":[[-121.569418,36.999256],[-121.568996,36.99938],[-121.568184,36.999624]]}},{"type":"Feature","properties":{"osm_id":607515403,"name":"West 10th Street","ref":null,"highway":"residential"},"geometry":{"type":"LineString","coordinates":[[-121.584748,36.990923],[-121.58456,36.991031],[-121.584346,36.991172],[-121.584236,36.991251]]}},{"type":"Feature","properties":{"osm_id":607515404,"name":"West 10th Street","ref":null,"highway":"residential"},"geometry":{"type":"LineString","coordinates":[[-121.584321,36.991308],[-121.584475,36.991201],[-121.584634,36.991103],[-121.58481,36.990994]]}},{"type":"Feature","properties":{"osm_id":607515408,"name":"West 10th Street","ref":null,"highway":"residential"},"geometry":{"type":"LineString","coordinates":[[-121.583467,36.992001],[-121.583293,36.992227],[-121.582812,36.992977],[-121.582652,36.993223],[-121.58244,36.993474],[-121.582268,36.99367],[-121.582125,36.993797]]}},{"type":"Feature","properties":{"osm_id":607515409,"name":"West 10th Street","ref":null,"highway":"residential"},"geometry":{"type":"LineString","coordinates":[[-121.582203,36.993849],[-121.582509,36.993563],[-121.582661,36.993384],[-121.582844,36.993136],[-121.58316,36.992613],[-121.583411,36.992239],[-121.583557,36.992043]]}},{"type":"Feature","properties":{"osm_id":607515422,"name":"West 10th Street","ref":null,"highway":"residential"},"geometry":{"type":"LineString","coordinates":[[-121.587052,36.989555],[-121.58713,36.98946],[-121.58726,36.989312],[-121.587343,36.989175],[-121.587433,36.989021],[-121.587518,36.988828],[-121.587588,36.988641],[-121.587642,36.988447],[-121.587693,36.988204],[-121.587736,36.987997]]}},{"type":"Feature","properties":{"osm_id":607515423,"name":"West 10th Street","ref":null,"highway":"residential"},"geometry":{"type":"LineString","coordinates":[[-121.58742,36.98879],[-121.587359,36.988914],[-121.58729,36.989028],[-121.587228,36.989135],[-121.58713,36.989295],[-121.586995,36.989468]]}},{"type":"Feature","properties":{"osm_id":614335369,"name":"Monterey Street","ref":null,"highway":"secondary"},"geometry":{"type":"LineString","coordinates":[[-121.567018,37.003249],[-121.567072,37.003366],[-121.567441,37.004179],[-121.567465,37.004233],[-121.567502,37.004313],[-121.567877,37.005139],[-121.567916,37.005225]]}},{"type":"Feature","properties":{"osm_id":614335382,"name":"Monterey Street","ref":null,"highway":"secondary"},"geometry":{"type":"LineString","coordinates":[[-121.568005,37.005198],[-121.567966,37.005113],[-121.56753,37.004154],[-121.567335,37.003724],[-121.56716,37.003341],[-121.567112,37.003221]]}},{"type":"Feature","properties":{"osm_id":614335383,"name":"Leavesley Road","ref":"CA 152","highway":"primary"},"geometry":{"type":"LineString","coordinates":[[-121.569257,37.021345],[-121.569071,37.021416],[-121.568517,37.021625],[-121.568103,37.021783]]}},{"type":"Feature","properties":{"osm_id":614335384,"name":"Leavesley Road","ref":"CA 152","highway":"primary"},"geometry":{"type":"LineString","coordinates":[[-121.569329,37.021466],[-121.5695,37.021401],[-121.571585,37.02061],[-121.571772,37.020539]]}},{"type":"Feature","properties":{"osm_id":614335415,"name":"Leavesley Road","ref":"G9","highway":"secondary"},"geometry":{"type":"LineString","coordinates":[[-121.563236,37.02363],[-121.563099,37.023688]]}},{"type":"Feature","properties":{"osm_id":685463579,"name":"Monterey Road","ref":null,"highway":"primary"},"geometry":{"type":"LineString","coordinates":[[-121.581186,37.03177],[-121.581211,37.03194],[-121.581309,37.032139]]}},{"type":"Feature","properties":{"osm_id":685463580,"name":"Monterey Road","ref":null,"highway":"primary"},"geometry":{"type":"LineString","coordinates":[[-121.581962,37.033295],[-121.581984,37.033457],[-121.582271,37.034016]]}},{"type":"Feature","properties":{"osm_id":712527241,"name":"South Valley Freeway","ref":"US 101","highway":"motorway"},"geometry":{"type":"LineString","coordinates":[[-121.558438,36.982025],[-121.558339,36.981782],[-121.558221,36.981521],[-121.558107,36.981284],[-121.557981,36.981026]]}},{"type":"Feature","properties":{"osm_id":719996841,"name":"Leavesley Road","ref":null,"highway":"primary"},"geometry":{"type":"LineString","coordinates":[[-121.574835,37.019345],[-121.574696,37.019357]]}},{"type":"Feature","properties":{"osm_id":719996843,"name":"Monterey Street","ref":null,"highway":"primary"},"geometry":{"type":"LineString","coordinates":[[-121.574458,37.018872],[-121.574653,37.019273],[-121.574696,37.019357]]}},{"type":"Feature","properties":{"osm_id":719996844,"name":"Monterey Road","ref":null,"highway":"primary"},"geometry":{"type":"LineString","coordinates":[[-121.578364,37.026269],[-121.578996,37.027508],[-121.579093,37.027697],[-121.579294,37.028092],[-121.579718,37.02891],[-121.579814,37.0291]]}},{"type":"Feature","properties":{"osm_id":746538349,"name":"Leavesley Road","ref":"G9","highway":"secondary"},"geometry":{"type":"LineString","coordinates":[[-121.537481,37.033585],[-121.535951,37.034109],[-121.535298,37.034315],[-121.535058,37.034383],[-121.534861,37.034425],[-121.534672,37.034452],[-121.534452,37.034464],[-121.534286,37.034466],[-121.53408,37.034445],[-121.533874,37.034411],[-121.533633,37.034356],[-121.533419,37.034281],[-121.533171,37.034154],[-121.532934,37.033995],[-121.532131,37.033246],[-121.530095,37.031296],[-121.530071,37.031273]]}},{"type":"Feature","properties":{"osm_id":749915974,"name":"East 10th Street","ref":null,"highway":"secondary"},"geometry":{"type":"LineString","coordinates":[[-121.559748,37.002053],[-121.559413,37.002154]]}},{"type":"Feature","properties":{"osm_id":749915975,"name":"East 10th Street","ref":null,"highway":"secondary"},"geometry":{"type":"LineString","coordinates":[[-121.560016,37.001973],[-121.559891,37.00201]]}},{"type":"Feature","properties":{"osm_id":751753035,"name":"South Valley Freeway","ref":"US 101","highway":"motorway"},"geometry":{"type":"LineString","coordinates":[[-121.558108,36.987544],[-121.557894,36.988645]]}},{"type":"Feature","properties":{"osm_id":751812649,"name":"South Valley Freeway","ref":"US 101","highway":"trunk"},"geometry":{"type":"LineString","coordinates":[[-121.550973,36.933267],[-121.55107,36.933397],[-121.551154,36.933512],[-121.551235,36.933629],[-121.551312,36.933745],[-121.551389,36.933866],[-121.551463,36.933986],[-121.551535,36.934108],[-121.551606,36.934233],[-121.551672,36.934357],[-121.551737,36.934483],[-121.5518,36.93461],[-121.55186,36.934737],[-121.551917,36.934867],[-121.551971,36.934996],[-121.552022,36.935124],[-121.552071,36.935255],[-121.552116,36.935386],[-121.552159,36.935517],[-121.552199,36.935647],[-121.552237,36.935779],[-121.552271,36.935909],[-121.552303,36.936042],[-121.552332,36.936173],[-121.552358,36.936304],[-121.552383,36.936437],[-121.552403,36.936567],[-121.552417,36.936659],[-121.552433,36.936787],[-121.552447,36.93691],[-121.552456,36.937044],[-121.552463,36.937174],[-121.552468,36.937306],[-121.552532,36.939173],[-121.552595,36.941039],[-121.552659,36.942987],[-121.552755,36.945828],[-121.552794,36.946887],[-121.552799,36.94702],[-121.552802,36.947153],[-121.552807,36.947287],[-121.552809,36.94742],[-121.55281,36.947553],[-121.55281,36.947685],[-121.552808,36.947818],[-121.552804,36.947954],[-121.552798,36.948087],[-121.552791,36.948221],[-121.552784,36.948354],[-121.552774,36.948489],[-121.552764,36.94862],[-121.552753,36.948751],[-121.55274,36.948885],[-121.552727,36.949019],[-121.552713,36.949151],[-121.552699,36.949281],[-121.552683,36.949414],[-121.552666,36.949545],[-121.552648,36.949679],[-121.552628,36.94981],[-121.552609,36.949941],[-121.552588,36.950073],[-121.552527,36.950452],[-121.552145,36.952836],[-121.551893,36.954428],[-121.551653,36.955938],[-121.551369,36.957719],[-121.551075,36.959573],[-121.551054,36.959706],[-121.551034,36.959839],[-121.551013,36.959972],[-121.550995,36.960104],[-121.550977,36.960237],[-121.550963,36.960368],[-121.550952,36.9605],[-121.550944,36.960633],[-121.550941,36.960764],[-121.550941,36.960899],[-121.550944,36.961031],[-121.550951,36.961164],[-121.550959,36.961292],[-121.550971,36.961431],[-121.550986,36.961562],[-121.551005,36.961694],[-121.551028,36.961828],[-121.551052,36.961959],[-121.551081,36.962093],[-121.551113,36.962224],[-121.551148,36.962356],[-121.551185,36.962489],[-121.551234,36.962656],[-121.551261,36.962748],[-121.551301,36.96288],[-121.551378,36.96314],[-121.551687,36.964201],[-121.551785,36.964533],[-121.552067,36.965489],[-121.552245,36.966099],[-121.552675,36.967543],[-121.553054,36.968838],[-121.553359,36.969874],[-121.553625,36.970778],[-121.553932,36.971819]]}},{"type":"Feature","properties":{"osm_id":751812650,"name":"South Valley Freeway","ref":"US 101","highway":"motorway"},"geometry":{"type":"LineString","coordinates":[[-121.553932,36.971819],[-121.554238,36.972853],[-121.554277,36.972983],[-121.554317,36.973112],[-121.554357,36.97324],[-121.554398,36.97337],[-121.55444,36.973498],[-121.554482,36.973628],[-121.554525,36.973757],[-121.554569,36.973888],[-121.554613,36.974015],[-121.554658,36.974142],[-121.554703,36.974271],[-121.554749,36.974399],[-121.554795,36.974527],[-121.554841,36.974655],[-121.554889,36.974783],[-121.554937,36.97491],[-121.554986,36.975039],[-121.555034,36.975165],[-121.555084,36.975292],[-121.555133,36.975419],[-121.555184,36.975549],[-121.555234,36.975675],[-121.555338,36.975928]]}},{"type":"Feature","properties":{"osm_id":763218731,"name":"Princevalle Street","ref":null,"highway":"tertiary"},"geometry":{"type":"LineString","coordinates":[[-121.573186,36.995695],[-121.573205,36.995737]]}},{"type":"Feature","properties":{"osm_id":763218732,"name":"Princevalle Street","ref":null,"highway":"tertiary"},"geometry":{"type":"LineString","coordinates":[[-121.573128,36.995568],[-121.57316,36.995637],[-121.573186,36.995695]]}},{"type":"Feature","properties":{"osm_id":763218733,"name":"Princevalle Street","ref":null,"highway":"tertiary"},"geometry":{"type":"LineString","coordinates":[[-121.573205,36.995737],[-121.573268,36.995874],[-121.573352,36.996058],[-121.573814,36.997082],[-121.573865,36.997194],[-121.573939,36.997357]]}},{"type":"Feature","properties":{"osm_id":765877073,"name":"East 10th Street","ref":null,"highway":"secondary"},"geometry":{"type":"LineString","coordinates":[[-121.564345,37.000721],[-121.564768,37.000599],[-121.564816,37.000586],[-121.565089,37.000508],[-121.565352,37.000432],[-121.565581,37.000367],[-121.565679,37.000339]]}},{"type":"Feature","properties":{"osm_id":789027585,"name":"Welburn Avenue","ref":null,"highway":"secondary"},"geometry":{"type":"LineString","coordinates":[[-121.594608,37.017637],[-121.595787,37.017658],[-121.597799,37.017684],[-121.598007,37.017691],[-121.598618,37.017734]]}},{"type":"Feature","properties":{"osm_id":789027586,"name":"Welburn Avenue","ref":null,"highway":"secondary"},"geometry":{"type":"LineString","coordinates":[[-121.591599,37.017609],[-121.592598,37.017616],[-121.594608,37.017637]]}},{"type":"Feature","properties":{"osm_id":789027587,"name":"Monterey Street","ref":"CA 152","highway":"primary"},"geometry":{"type":"LineString","coordinates":[[-121.57378,37.017415],[-121.573791,37.017439],[-121.573882,37.017624],[-121.574036,37.017932],[-121.574086,37.01804],[-121.574123,37.018128],[-121.574329,37.018602]]}},{"type":"Feature","properties":{"osm_id":789027588,"name":"Monterey Street","ref":"CA 152","highway":"primary"},"geometry":{"type":"LineString","coordinates":[[-121.573894,37.017382],[-121.573874,37.017338],[-121.57382,37.017223],[-121.573742,37.017056],[-121.573582,37.016748],[-121.57341,37.016427],[-121.573287,37.016196],[-121.572755,37.015204],[-121.572701,37.015102],[-121.572506,37.014738],[-121.572381,37.014652]]}},{"type":"Feature","properties":{"osm_id":806791208,"name":"Monterey Road","ref":null,"highway":"primary"},"geometry":{"type":"LineString","coordinates":[[-121.581466,37.032318],[-121.581449,37.03216],[-121.581319,37.031902],[-121.581186,37.03177]]}},{"type":"Feature","properties":{"osm_id":806791209,"name":"Monterey Road","ref":null,"highway":"primary"},"geometry":{"type":"LineString","coordinates":[[-121.581466,37.032318],[-121.581534,37.032456],[-121.581962,37.033295]]}},{"type":"Feature","properties":{"osm_id":806792491,"name":"Monterey Road","ref":null,"highway":"primary"},"geometry":{"type":"LineString","coordinates":[[-121.581092,37.031598],[-121.581129,37.031667],[-121.581186,37.03177]]}},{"type":"Feature","properties":{"osm_id":878375585,"name":"Leavesley Road","ref":"G9","highway":"secondary"},"geometry":{"type":"LineString","coordinates":[[-121.543397,37.031292],[-121.543251,37.031347],[-121.540834,37.032287],[-121.539907,37.032636],[-121.537909,37.033417],[-121.537481,37.033585]]}},{"type":"Feature","properties":{"osm_id":878375586,"name":"Leavesley Road","ref":"G9","highway":"secondary"},"geometry":{"type":"LineString","coordinates":[[-121.543893,37.031108],[-121.543397,37.031292]]}},{"type":"Feature","properties":{"osm_id":878394280,"name":"Monterey Road","ref":null,"highway":"primary"},"geometry":{"type":"LineString","coordinates":[[-121.590416,37.049789],[-121.590516,37.049984],[-121.590694,37.050328]]}},{"type":"Feature","properties":{"osm_id":878458714,"name":"Welburn Avenue","ref":null,"highway":"secondary"},"geometry":{"type":"LineString","coordinates":[[-121.598618,37.017734],[-121.599049,37.017762],[-121.599182,37.017768]]}},{"type":"Feature","properties":{"osm_id":878458725,"name":"Welburn Avenue","ref":null,"highway":"tertiary"},"geometry":{"type":"LineString","coordinates":[[-121.599327,37.017775],[-121.599469,37.017775],[-121.599489,37.017776],[-121.599654,37.017774]]}},{"type":"Feature","properties":{"osm_id":878458726,"name":"Welburn Avenue","ref":null,"highway":"secondary"},"geometry":{"type":"LineString","coordinates":[[-121.599182,37.017768],[-121.599327,37.017775]]}},{"type":"Feature","properties":{"osm_id":878458853,"name":"West 10th Street","ref":null,"highway":"residential"},"geometry":{"type":"LineString","coordinates":[[-121.586207,36.990164],[-121.585953,36.9903],[-121.585766,36.990396]]}},{"type":"Feature","properties":{"osm_id":878458854,"name":"West 10th Street","ref":null,"highway":"residential"},"geometry":{"type":"LineString","coordinates":[[-121.585815,36.990475],[-121.586061,36.990349],[-121.586237,36.99024],[-121.586269,36.990219]]}},{"type":"Feature","properties":{"osm_id":918147846,"name":"Monterey Street","ref":null,"highway":"secondary"},"geometry":{"type":"LineString","coordinates":[[-121.571349,37.012685],[-121.57148,37.012951],[-121.57157,37.013151],[-121.571636,37.013298],[-121.571648,37.013324],[-121.571759,37.013515],[-121.571865,37.013699],[-121.572003,37.013954],[-121.572051,37.014035],[-121.572077,37.014079],[-121.572167,37.014232],[-121.572196,37.014286],[-121.57222,37.01433],[-121.572288,37.014457],[-121.572381,37.014652]]}},{"type":"Feature","properties":{"osm_id":918147847,"name":"Monterey Street","ref":null,"highway":"secondary"},"geometry":{"type":"LineString","coordinates":[[-121.571302,37.012578],[-121.571349,37.012685]]}},{"type":"Feature","properties":{"osm_id":918148374,"name":"Monterey Street","ref":null,"highway":"secondary"},"geometry":{"type":"LineString","coordinates":[[-121.569409,37.008393],[-121.56996,37.00961]]}},{"type":"Feature","properties":{"osm_id":918148375,"name":"Monterey Street","ref":null,"highway":"secondary"},"geometry":{"type":"LineString","coordinates":[[-121.569293,37.008151],[-121.569301,37.008168],[-121.569347,37.008268],[-121.569409,37.008393]]}},{"type":"Feature","properties":{"osm_id":918149481,"name":"Monterey Street","ref":"CA 152","highway":"primary"},"geometry":{"type":"LineString","coordinates":[[-121.574008,37.017605],[-121.573894,37.017382]]}},{"type":"Feature","properties":{"osm_id":919194518,"name":"Monterey Street","ref":null,"highway":"secondary"},"geometry":{"type":"LineString","coordinates":[[-121.570125,37.009981],[-121.570181,37.010102],[-121.570343,37.010473],[-121.570507,37.010847],[-121.57059,37.011005],[-121.570697,37.011202],[-121.570852,37.011545],[-121.570871,37.011588],[-121.570929,37.01172],[-121.571302,37.012578]]}},{"type":"Feature","properties":{"osm_id":940777645,"name":"Princevalle Street","ref":null,"highway":"tertiary"},"geometry":{"type":"LineString","coordinates":[[-121.57272,36.9947],[-121.572769,36.994783],[-121.57281,36.994866],[-121.572877,36.995015]]}},{"type":"Feature","properties":{"osm_id":940777648,"name":"West 10th Street","ref":null,"highway":"tertiary"},"geometry":{"type":"LineString","coordinates":[[-121.579109,36.996391],[-121.579034,36.996422],[-121.578901,36.996471],[-121.578776,36.996515],[-121.578629,36.996562],[-121.578486,36.996605]]}},{"type":"Feature","properties":{"osm_id":940777649,"name":"Princevalle Street","ref":null,"highway":"tertiary"},"geometry":{"type":"LineString","coordinates":[[-121.570508,36.992623],[-121.570497,36.993338]]}},{"type":"Feature","properties":{"osm_id":1008883770,"name":"South Valley Freeway","ref":"US 101","highway":"motorway"},"geometry":{"type":"LineString","coordinates":[[-121.566634,37.022723],[-121.566937,37.023316],[-121.569303,37.027522]]}},{"type":"Feature","properties":{"osm_id":1008883774,"name":"South Valley Freeway","ref":"US 101","highway":"motorway"},"geometry":{"type":"LineString","coordinates":[[-121.569132,37.026602],[-121.567646,37.023852],[-121.566959,37.022592]]}},{"type":"Feature","properties":{"osm_id":1008883777,"name":"Leavesley Road","ref":"CA 152","highway":"primary"},"geometry":{"type":"LineString","coordinates":[[-121.567392,37.022221],[-121.567608,37.022134],[-121.568116,37.021929],[-121.568268,37.02187],[-121.568587,37.021748],[-121.568811,37.021662],[-121.569125,37.021543],[-121.569141,37.021537],[-121.569329,37.021466]]}},{"type":"Feature","properties":{"osm_id":1008883780,"name":"Leavesley Road","ref":"G9","highway":"primary"},"geometry":{"type":"LineString","coordinates":[[-121.567316,37.022061],[-121.567093,37.022141],[-121.566272,37.022452],[-121.566196,37.022481],[-121.566119,37.022509],[-121.566043,37.022536],[-121.565897,37.022583]]}},{"type":"Feature","properties":{"osm_id":1078942783,"name":"Miller Avenue","ref":null,"highway":"tertiary"},"geometry":{"type":"LineString","coordinates":[[-121.587725,36.992167],[-121.587717,36.992204],[-121.587706,36.992245],[-121.587687,36.992282],[-121.587647,36.992359],[-121.587634,36.992413]]}},{"type":"Feature","properties":{"osm_id":1078942784,"name":"Miller Avenue","ref":null,"highway":"tertiary"},"geometry":{"type":"LineString","coordinates":[[-121.587634,36.992413],[-121.58775,36.992322],[-121.587757,36.992317],[-121.587815,36.992274],[-121.587849,36.992247]]}},{"type":"Feature","properties":{"osm_id":1078942824,"name":"West 10th Street","ref":null,"highway":"residential"},"geometry":{"type":"LineString","coordinates":[[-121.587638,36.988017],[-121.587623,36.98808],[-121.587534,36.98843],[-121.587526,36.988455]]}},{"type":"Feature","properties":{"osm_id":1078942825,"name":"West 10th Street","ref":null,"highway":"residential"},"geometry":{"type":"LineString","coordinates":[[-121.587526,36.988455],[-121.587477,36.988623],[-121.58742,36.98879]]}},{"type":"Feature","properties":{"osm_id":1078942863,"name":"West 10th Street","ref":null,"highway":"residential"},"geometry":{"type":"LineString","coordinates":[[-121.586523,36.989933],[-121.586441,36.990003],[-121.586377,36.990058],[-121.586207,36.990164]]}},{"type":"Feature","properties":{"osm_id":1078942882,"name":"West 10th Street","ref":null,"highway":"residential"},"geometry":{"type":"LineString","coordinates":[[-121.58546,36.990701],[-121.585514,36.990646],[-121.585573,36.990604],[-121.585815,36.990475]]}},{"type":"Feature","properties":{"osm_id":1078942889,"name":"West 10th Street","ref":null,"highway":"residential"},"geometry":{"type":"LineString","coordinates":[[-121.585103,36.990696],[-121.584985,36.990784],[-121.584748,36.990923]]}},{"type":"Feature","properties":{"osm_id":1078942896,"name":"West 10th Street","ref":null,"highway":"residential"},"geometry":{"type":"LineString","coordinates":[[-121.58481,36.990994],[-121.58505,36.990862],[-121.585141,36.990832],[-121.585193,36.990818]]}},{"type":"Feature","properties":{"osm_id":1078942911,"name":"West 10th Street","ref":null,"highway":"residential"},"geometry":{"type":"LineString","coordinates":[[-121.585766,36.990396],[-121.585637,36.990464],[-121.585507,36.990527],[-121.585411,36.990556],[-121.585345,36.990561]]}},{"type":"Feature","properties":{"osm_id":1078942937,"name":"West 10th Street","ref":null,"highway":"residential"},"geometry":{"type":"LineString","coordinates":[[-121.584236,36.991251],[-121.583998,36.99145],[-121.583948,36.991482],[-121.583917,36.991501]]}},{"type":"Feature","properties":{"osm_id":1078942939,"name":"West 10th Street","ref":null,"highway":"residential"},"geometry":{"type":"LineString","coordinates":[[-121.584028,36.99158],[-121.584101,36.9915],[-121.584209,36.991398],[-121.584321,36.991308]]}},{"type":"Feature","properties":{"osm_id":1078942963,"name":"West 10th Street","ref":null,"highway":"residential"},"geometry":{"type":"LineString","coordinates":[[-121.583696,36.991672],[-121.583636,36.99178],[-121.583467,36.992001]]}},{"type":"Feature","properties":{"osm_id":1078942973,"name":"West 10th Street","ref":null,"highway":"residential"},"geometry":{"type":"LineString","coordinates":[[-121.583557,36.992043],[-121.583698,36.991873],[-121.583784,36.991808],[-121.583866,36.991774]]}},{"type":"Feature","properties":{"osm_id":1078942979,"name":"West 10th Street","ref":null,"highway":"residential"},"geometry":{"type":"LineString","coordinates":[[-121.586269,36.990219],[-121.586466,36.990088],[-121.586507,36.990068],[-121.586563,36.99004],[-121.586612,36.990022]]}},{"type":"Feature","properties":{"osm_id":1078942988,"name":"West 10th Street","ref":null,"highway":"residential"},"geometry":{"type":"LineString","coordinates":[[-121.586843,36.989812],[-121.58691,36.989729],[-121.587052,36.989555]]}},{"type":"Feature","properties":{"osm_id":1078942989,"name":"West 10th Street","ref":null,"highway":"residential"},"geometry":{"type":"LineString","coordinates":[[-121.586995,36.989468],[-121.586826,36.989686],[-121.586778,36.989721],[-121.586733,36.989755]]}},{"type":"Feature","properties":{"osm_id":1078943002,"name":"West 10th Street","ref":null,"highway":"residential"},"geometry":{"type":"LineString","coordinates":[[-121.587736,36.987997],[-121.587757,36.987918],[-121.587776,36.987818],[-121.587788,36.987785],[-121.587876,36.987649]]}},{"type":"Feature","properties":{"osm_id":1078943003,"name":"West 10th Street","ref":null,"highway":"residential"},"geometry":{"type":"LineString","coordinates":[[-121.587608,36.987592],[-121.587662,36.987772],[-121.587665,36.987825],[-121.587662,36.987891],[-121.587638,36.988017]]}},{"type":"Feature","properties":{"osm_id":1089331951,"name":"Monterey Road","ref":null,"highway":"secondary"},"geometry":{"type":"LineString","coordinates":[[-121.561921,36.991586],[-121.561888,36.991505]]}},{"type":"Feature","properties":{"osm_id":1089331953,"name":"Monterey Road","ref":null,"highway":"secondary"},"geometry":{"type":"LineString","coordinates":[[-121.561888,36.991505],[-121.561828,36.991355],[-121.561751,36.991185],[-121.561522,36.990675],[-121.561473,36.990566],[-121.561419,36.990441],[-121.561368,36.990315],[-121.561318,36.990188],[-121.561266,36.990051],[-121.561218,36.989925],[-121.560952,36.989219],[-121.560869,36.989009],[-121.560715,36.988626],[-121.560662,36.988499],[-121.560632,36.988433],[-121.560604,36.988375],[-121.560568,36.988312],[-121.56053,36.988252],[-121.560492,36.988195],[-121.560449,36.988139],[-121.560402,36.98808],[-121.560357,36.988027]]}},{"type":"Feature","properties":{"osm_id":1089331954,"name":"Monterey Road","ref":null,"highway":"secondary"},"geometry":{"type":"LineString","coordinates":[[-121.561657,36.991502],[-121.561688,36.991578]]}},{"type":"Feature","properties":{"osm_id":1089331957,"name":"Monterey Road","ref":null,"highway":"secondary"},"geometry":{"type":"LineString","coordinates":[[-121.561688,36.991578],[-121.561714,36.99164],[-121.561728,36.991672],[-121.561855,36.991958],[-121.562,36.992276],[-121.562145,36.992609],[-121.562307,36.992959],[-121.562338,36.993026],[-121.562429,36.993221],[-121.56245,36.993268],[-121.562589,36.993576],[-121.562653,36.993702],[-121.562796,36.994011],[-121.562955,36.994357],[-121.563045,36.994555],[-121.563376,36.995266],[-121.563463,36.995464],[-121.563605,36.995777],[-121.564927,36.998651],[-121.565013,36.998838],[-121.565241,36.999332],[-121.565461,36.999829],[-121.565487,36.999894],[-121.565631,37.000229],[-121.565679,37.000339]]}},{"type":"Feature","properties":{"osm_id":1202484107,"name":"Monterey Street","ref":null,"highway":"primary"},"geometry":{"type":"LineString","coordinates":[[-121.574752,37.019471],[-121.574823,37.019608],[-121.574849,37.019658],[-121.575232,37.020383],[-121.575339,37.020585],[-121.575456,37.020815],[-121.575558,37.021013],[-121.575694,37.021137]]}},{"type":"Feature","properties":{"osm_id":1202484108,"name":"Monterey Street","ref":"CA 152","highway":"primary"},"geometry":{"type":"LineString","coordinates":[[-121.574329,37.018602],[-121.574458,37.018872]]}},{"type":"Feature","properties":{"osm_id":1202484109,"name":"Monterey Street","ref":null,"highway":"primary"},"geometry":{"type":"LineString","coordinates":[[-121.575532,37.020685],[-121.575508,37.02064],[-121.575414,37.020463],[-121.575204,37.020059],[-121.575098,37.019856],[-121.574948,37.01957],[-121.57488,37.019436]]}},{"type":"Feature","properties":{"osm_id":1202484110,"name":"Welburn Avenue","ref":null,"highway":"secondary"},"geometry":{"type":"LineString","coordinates":[[-121.575053,37.019388],[-121.574985,37.019371],[-121.574835,37.019345]]}},{"type":"Feature","properties":{"osm_id":1202484111,"name":"Welburn Avenue","ref":null,"highway":"secondary"},"geometry":{"type":"LineString","coordinates":[[-121.57488,37.019436],[-121.575004,37.019401],[-121.575053,37.019388]]}},{"type":"Feature","properties":{"osm_id":1202484112,"name":"Leavesley Road","ref":"CA 152","highway":"primary"},"geometry":{"type":"LineString","coordinates":[[-121.574752,37.019471],[-121.57488,37.019436]]}},{"type":"Feature","properties":{"osm_id":1202484113,"name":"Monterey Street","ref":null,"highway":"primary"},"geometry":{"type":"LineString","coordinates":[[-121.574696,37.019357],[-121.574752,37.019471]]}},{"type":"Feature","properties":{"osm_id":1202484114,"name":"Leavesley Road","ref":null,"highway":"primary"},"geometry":{"type":"LineString","coordinates":[[-121.574696,37.019357],[-121.574518,37.019376],[-121.574349,37.019414]]}},{"type":"Feature","properties":{"osm_id":1202484115,"name":"Monterey Street","ref":"CA 152","highway":"primary"},"geometry":{"type":"LineString","coordinates":[[-121.574835,37.019345],[-121.574797,37.019267],[-121.574724,37.01912],[-121.574611,37.018894],[-121.574522,37.018707],[-121.574434,37.018521],[-121.574281,37.018178],[-121.574245,37.018094],[-121.574147,37.017899],[-121.574008,37.017605]]}},{"type":"Feature","properties":{"osm_id":1202484118,"name":"Leavesley Road","ref":"CA 152","highway":"primary"},"geometry":{"type":"LineString","coordinates":[[-121.573925,37.019749],[-121.57459,37.019516],[-121.574752,37.019471]]}},{"type":"Feature","properties":{"osm_id":1202484119,"name":"Leavesley Road","ref":"CA 152","highway":"primary"},"geometry":{"type":"LineString","coordinates":[[-121.571772,37.020539],[-121.571942,37.020476],[-121.572346,37.020327],[-121.572514,37.020264],[-121.573317,37.019966],[-121.573624,37.019855],[-121.573925,37.019749]]}},{"type":"Feature","properties":{"osm_id":1202484120,"name":"Monterey Street","ref":null,"highway":"primary"},"geometry":{"type":"LineString","coordinates":[[-121.575694,37.021137],[-121.575676,37.020968],[-121.575532,37.020685]]}},{"type":"Feature","properties":{"osm_id":1202484121,"name":"Welburn Avenue","ref":null,"highway":"secondary"},"geometry":{"type":"LineString","coordinates":[[-121.575053,37.019388],[-121.575483,37.019379]]}},{"type":"Feature","properties":{"osm_id":1202484122,"name":"Monterey Street","ref":null,"highway":"primary"},"geometry":{"type":"LineString","coordinates":[[-121.578197,37.025953],[-121.578303,37.026157],[-121.578364,37.026269]]}},{"type":"Feature","properties":{"osm_id":1202484123,"name":"Monterey Street","ref":null,"highway":"primary"},"geometry":{"type":"LineString","coordinates":[[-121.575694,37.021137],[-121.575913,37.021569]]}},{"type":"Feature","properties":{"osm_id":1202484124,"name":"Monterey Street","ref":null,"highway":"primary"},"geometry":{"type":"LineString","coordinates":[[-121.576008,37.021755],[-121.576067,37.02187],[-121.576163,37.022057]]}},{"type":"Feature","properties":{"osm_id":1202484125,"name":"Monterey Street","ref":null,"highway":"primary"},"geometry":{"type":"LineString","coordinates":[[-121.575913,37.021569],[-121.576008,37.021755]]}},{"type":"Feature","properties":{"osm_id":1202484126,"name":"Monterey Street","ref":null,"highway":"primary"},"geometry":{"type":"LineString","coordinates":[[-121.578106,37.025784],[-121.578197,37.025953]]}},{"type":"Feature","properties":{"osm_id":1202498107,"name":"Monterey Road","ref":null,"highway":"primary"},"geometry":{"type":"LineString","coordinates":[[-121.580662,37.03076],[-121.580961,37.031343],[-121.581092,37.031598]]}},{"type":"Feature","properties":{"osm_id":1202498108,"name":"Monterey Road","ref":null,"highway":"primary"},"geometry":{"type":"LineString","coordinates":[[-121.579814,37.0291],[-121.580006,37.029479],[-121.580054,37.029574]]}},{"type":"Feature","properties":{"osm_id":1202498109,"name":"Monterey Road","ref":null,"highway":"primary"},"geometry":{"type":"LineString","coordinates":[[-121.580054,37.029574],[-121.580112,37.029688],[-121.580187,37.029833],[-121.58043,37.030307]]}},{"type":"Feature","properties":{"osm_id":1202498110,"name":"Monterey Road","ref":null,"highway":"primary"},"geometry":{"type":"LineString","coordinates":[[-121.58043,37.030307],[-121.580662,37.03076]]}},{"type":"Feature","properties":{"osm_id":1202498111,"name":"Monterey Road","ref":null,"highway":"primary"},"geometry":{"type":"LineString","coordinates":[[-121.581309,37.032139],[-121.581334,37.032189],[-121.581466,37.032318]]}},{"type":"Feature","properties":{"osm_id":1202498114,"name":"Monterey Road","ref":null,"highway":"primary"},"geometry":{"type":"LineString","coordinates":[[-121.582637,37.034602],[-121.582778,37.034884],[-121.582903,37.035125]]}},{"type":"Feature","properties":{"osm_id":1202498115,"name":"Monterey Road","ref":null,"highway":"primary"},"geometry":{"type":"LineString","coordinates":[[-121.582483,37.034302],[-121.582462,37.034144],[-121.58225,37.033739],[-121.582092,37.033422],[-121.581962,37.033295]]}},{"type":"Feature","properties":{"osm_id":1202498116,"name":"Monterey Road","ref":null,"highway":"primary"},"geometry":{"type":"LineString","coordinates":[[-121.582483,37.034302],[-121.582637,37.034602]]}},{"type":"Feature","properties":{"osm_id":1202498117,"name":"Monterey Road","ref":null,"highway":"primary"},"geometry":{"type":"LineString","coordinates":[[-121.582271,37.034016],[-121.582355,37.034178],[-121.582483,37.034302]]}},{"type":"Feature","properties":{"osm_id":1202498118,"name":"Monterey Road","ref":null,"highway":"primary"},"geometry":{"type":"LineString","coordinates":[[-121.582903,37.035125],[-121.583009,37.035329],[-121.583124,37.035558],[-121.583429,37.036158],[-121.584069,37.037406]]}},{"type":"Feature","properties":{"osm_id":1202498119,"name":"Monterey Road","ref":null,"highway":"primary"},"geometry":{"type":"LineString","coordinates":[[-121.584165,37.037589],[-121.58423,37.037713],[-121.584502,37.038243]]}},{"type":"Feature","properties":{"osm_id":1202498120,"name":"Monterey Road","ref":null,"highway":"primary"},"geometry":{"type":"LineString","coordinates":[[-121.584069,37.037406],[-121.584123,37.037508],[-121.584165,37.037589]]}},{"type":"Feature","properties":{"osm_id":1202498121,"name":"Monterey Road","ref":null,"highway":"primary"},"geometry":{"type":"LineString","coordinates":[[-121.590694,37.050328],[-121.590869,37.050671],[-121.590925,37.05078]]}},{"type":"Feature","properties":{"osm_id":1202498122,"name":"Monterey Road","ref":null,"highway":"primary"},"geometry":{"type":"LineString","coordinates":[[-121.590925,37.05078],[-121.591586,37.052071]]}},{"type":"Feature","properties":{"osm_id":1202498123,"name":"Monterey Road","ref":null,"highway":"primary"},"geometry":{"type":"LineString","coordinates":[[-121.591586,37.052071],[-121.592734,37.054313],[-121.59287,37.054574],[-121.592975,37.054774],[-121.593094,37.054991],[-121.593344,37.05544]]}},{"type":"Feature","properties":{"osm_id":1202498124,"name":"Monterey Road","ref":null,"highway":"primary"},"geometry":{"type":"LineString","coordinates":[[-121.593344,37.05544],[-121.593434,37.055603]]}},{"type":"Feature","properties":{"osm_id":1202498125,"name":"Monterey Road","ref":null,"highway":"primary"},"geometry":{"type":"LineString","coordinates":[[-121.593434,37.055603],[-121.593523,37.055765],[-121.593729,37.056135]]}},{"type":"Feature","properties":{"osm_id":1202498126,"name":"Monterey Road","ref":null,"highway":"primary"},"geometry":{"type":"LineString","coordinates":[[-121.593729,37.056135],[-121.593922,37.056487]]}},{"type":"Feature","properties":{"osm_id":1202498127,"name":"Monterey Road","ref":null,"highway":"primary"},"geometry":{"type":"LineString","coordinates":[[-121.593922,37.056487],[-121.594023,37.056671]]}},{"type":"Feature","properties":{"osm_id":1202498128,"name":"Monterey Road","ref":null,"highway":"primary"},"geometry":{"type":"LineString","coordinates":[[-121.594023,37.056671],[-121.594093,37.0568]]}},{"type":"Feature","properties":{"osm_id":1202498129,"name":"Monterey Road","ref":null,"highway":"primary"},"geometry":{"type":"LineString","coordinates":[[-121.594093,37.0568],[-121.594163,37.056927]]}},{"type":"Feature","properties":{"osm_id":1202498130,"name":"Monterey Road","ref":null,"highway":"primary"},"geometry":{"type":"LineString","coordinates":[[-121.594315,37.057206],[-121.59467,37.05785],[-121.594852,37.058183],[-121.59502,37.058488],[-121.59514,37.058707],[-121.595268,37.058939]]}},{"type":"Feature","properties":{"osm_id":1202498131,"name":"Monterey Road","ref":null,"highway":"primary"},"geometry":{"type":"LineString","coordinates":[[-121.595268,37.058939],[-121.595484,37.059331]]}},{"type":"Feature","properties":{"osm_id":1202498132,"name":"Monterey Road","ref":null,"highway":"primary"},"geometry":{"type":"LineString","coordinates":[[-121.595484,37.059331],[-121.595723,37.059764]]}},{"type":"Feature","properties":{"osm_id":1202498133,"name":"Monterey Road","ref":null,"highway":"primary"},"geometry":{"type":"LineString","coordinates":[[-121.595723,37.059764],[-121.595895,37.060077],[-121.596093,37.060438],[-121.596308,37.060829],[-121.596585,37.061335]]}},{"type":"Feature","properties":{"osm_id":1202498134,"name":"Monterey Road","ref":null,"highway":"primary"},"geometry":{"type":"LineString","coordinates":[[-121.596585,37.061335],[-121.59669,37.061526]]}},{"type":"Feature","properties":{"osm_id":1202498135,"name":"Monterey Road","ref":null,"highway":"primary"},"geometry":{"type":"LineString","coordinates":[[-121.59669,37.061526],[-121.596796,37.061717]]}},{"type":"Feature","properties":{"osm_id":1202498136,"name":"Monterey Road","ref":null,"highway":"primary"},"geometry":{"type":"LineString","coordinates":[[-121.60038,37.068233],[-121.600497,37.068445],[-121.60063,37.068683],[-121.600769,37.068923],[-121.600913,37.069162],[-121.601452,37.070033]]}},{"type":"Feature","properties":{"osm_id":1202498137,"name":"Monterey Road","ref":null,"highway":"primary"},"geometry":{"type":"LineString","coordinates":[[-121.600123,37.067761],[-121.60024,37.067976],[-121.600278,37.068045],[-121.60038,37.068233]]}},{"type":"Feature","properties":{"osm_id":1202498142,"name":"Monterey Road","ref":null,"highway":"primary"},"geometry":{"type":"LineString","coordinates":[[-121.598364,37.064566],[-121.600123,37.067761]]}},{"type":"Feature","properties":{"osm_id":1202498143,"name":"Monterey Road","ref":null,"highway":"primary"},"geometry":{"type":"LineString","coordinates":[[-121.594163,37.056927],[-121.594315,37.057206]]}},{"type":"Feature","properties":{"osm_id":1202498146,"name":"Monterey Road","ref":null,"highway":"primary"},"geometry":{"type":"LineString","coordinates":[[-121.58953,37.04806],[-121.590416,37.049789]]}},{"type":"Feature","properties":{"osm_id":1315604909,"name":"South Valley Freeway","ref":"US 101","highway":"motorway"},"geometry":{"type":"LineString","coordinates":[[-121.597715,37.085416],[-121.593944,37.078565],[-121.590954,37.073138],[-121.590674,37.072617],[-121.590431,37.072164],[-121.590169,37.071643],[-121.589931,37.071165],[-121.589682,37.07066],[-121.589454,37.070173],[-121.589226,37.069673],[-121.589011,37.06919],[-121.588693,37.068461],[-121.587028,37.064619]]}},{"type":"Feature","properties":{"osm_id":1315604910,"name":"South Valley Freeway","ref":"US 101","highway":"motorway"},"geometry":{"type":"LineString","coordinates":[[-121.587028,37.064619],[-121.586891,37.064328]]}},{"type":"Feature","properties":{"osm_id":1315604911,"name":"South Valley Freeway","ref":"US 101","highway":"motorway"},"geometry":{"type":"LineString","coordinates":[[-121.569303,37.027522],[-121.571889,37.032284],[-121.574574,37.037236],[-121.574823,37.037693],[-121.57508,37.03818],[-121.575341,37.038674],[-121.575586,37.039161],[-121.57582,37.039637],[-121.576064,37.040146],[-121.576283,37.040626],[-121.576504,37.041115],[-121.576724,37.041609],[-121.576943,37.042116],[-121.577584,37.0436],[-121.580236,37.049712],[-121.582428,37.054955],[-121.583047,37.056181],[-121.586259,37.063579],[-121.586617,37.0644]]}},{"type":"Feature","properties":{"osm_id":1315604912,"name":"South Valley Freeway","ref":"US 101","highway":"motorway"},"geometry":{"type":"LineString","coordinates":[[-121.586617,37.0644],[-121.586685,37.064714]]}},{"type":"Feature","properties":{"osm_id":1339594462,"name":"East 10th Street","ref":null,"highway":"secondary"},"geometry":{"type":"LineString","coordinates":[[-121.559891,37.00201],[-121.559748,37.002053]]}},{"type":"Feature","properties":{"osm_id":1343453866,"name":"South Valley Freeway","ref":"US 101;CA 152","highway":"motorway"},"geometry":{"type":"LineString","coordinates":[[-121.558759,37.00745],[-121.558279,37.006556]]}},{"type":"Feature","properties":{"osm_id":1343453867,"name":"South Valley Freeway","ref":"US 101;CA 152","highway":"motorway"},"geometry":{"type":"LineString","coordinates":[[-121.559522,37.008869],[-121.558759,37.00745]]}},{"type":"Feature","properties":{"osm_id":1377393649,"name":"Princevalle Street","ref":null,"highway":"tertiary"},"geometry":{"type":"LineString","coordinates":[[-121.57709,37.004353],[-121.577446,37.005146],[-121.577811,37.005959],[-121.578525,37.00754],[-121.57923,37.009117],[-121.579927,37.01067],[-121.580871,37.012704],[-121.580969,37.012921],[-121.581068,37.013144],[-121.581202,37.013434]]}},{"type":"Feature","properties":{"osm_id":1465007332,"name":"Princevalle Street","ref":null,"highway":"tertiary"},"geometry":{"type":"LineString","coordinates":[[-121.573939,36.997357],[-121.574114,36.997746],[-121.574169,36.997869]]}},{"type":"Feature","properties":{"osm_id":1465007333,"name":"Princevalle Street","ref":null,"highway":"tertiary"},"geometry":{"type":"LineString","coordinates":[[-121.570509,36.992012],[-121.570509,36.992097],[-121.570508,36.992623]]}},{"type":"Feature","properties":{"osm_id":1465010117,"name":"Princevalle Street","ref":null,"highway":"tertiary"},"geometry":{"type":"LineString","coordinates":[[-121.575488,37.000781],[-121.575526,37.000866],[-121.576082,37.002093],[-121.576384,37.00276]]}},{"type":"Feature","properties":{"osm_id":1465418604,"name":"Monterey Road","ref":null,"highway":"secondary"},"geometry":{"type":"LineString","coordinates":[[-121.557421,36.98622],[-121.557433,36.986282],[-121.557464,36.986354],[-121.557501,36.986408],[-121.557547,36.986455],[-121.557598,36.986505],[-121.557653,36.986556],[-121.557711,36.986603],[-121.557772,36.986647],[-121.557835,36.986686],[-121.557902,36.986727],[-121.557969,36.986764],[-121.558036,36.9868],[-121.558712,36.987165],[-121.559022,36.987331],[-121.559103,36.987378]]}},{"type":"Feature","properties":{"osm_id":1465431774,"name":"Monterey Street","ref":null,"highway":"secondary"},"geometry":{"type":"LineString","coordinates":[[-121.56996,37.00961],[-121.570125,37.009981]]}}]}