{"type":"FeatureCollection","name":"Oldtown Gilroy","features":[{"type":"Feature","properties":{"id":1,"slug":"oldtown","kind":"district","name":"Oldtown","color":"#1a202c"},"geometry":{"type":"Polygon","coordinates":[[[-121.58186,37.01783],[-121.58125,37.018],[-121.58082,37.01813],[-121.58006,37.01835],[-121.57943,37.01853],[-121.57878,37.01873],[-121.57843,37.01883],[-121.57802,37.01895],[-121.57756,37.01909],[-121.57713,37.01923],[-121.5768,37.01932],[-121.57633,37.01936],[-121.57591,37.01937],[-121.57548,37.01938],[-121.57504,37.01939],[-121.5749,37.01938],[-121.57472,37.01941],[-121.57445,37.01943],[-121.57393,37.01975],[-121.57362,37.01977],[-121.57335,37.01987],[-121.57273,37.02002],[-121.57243,37.0203],[-121.5719,37.02041],[-121.57167,37.02052],[-121.57123,37.02059],[-121.57076,37.02077],[-121.56999,37.02107],[-121.56946,37.02134],[-121.56922,37.02145],[-121.56881,37.02166],[-121.56846,37.02175],[-121.56799,37.02185],[-121.56759,37.02202],[-121.5673,37.02216],[-121.56636,37.02222],[-121.56669,37.02209],[-121.56399,37.01785],[-121.56372,37.01662],[-121.56025,37.01021],[-121.55967,37.00989],[-121.55969,37.00956],[-121.55952,37.00887],[-121.55857,37.00749],[-121.55828,37.00656],[-121.55755,37.0056],[-121.55735,37.00523],[-121.55706,37.00471],[-121.55695,37.00437],[-121.5568,37.00399],[-121.55667,37.00361],[-121.55655,37.00323],[-121.55644,37.00284],[-121.55736,37.00276],[-121.55836,37.00246],[-121.55897,37.00222],[-121.55924,37.00222],[-121.55955,37.00211],[-121.55996,37.00199],[-121.56069,37.00178],[-121.56129,37.0016],[-121.56159,37.00152],[-121.56206,37.00137],[-121.56242,37.00126],[-121.56271,37.00119],[-121.56332,37.00101],[-121.56357,37.00094],[-121.56401,37.00082],[-121.56435,37.00072],[-121.56479,37.00059],[-121.56522,37.00047],[-121.56565,37.00035],[-121.56595,37.00027],[-121.56625,37.00018],[-121.56697,36.99997],[-121.56731,36.99987],[-121.56759,36.99979],[-121.56818,36.99962],[-121.569,36.99938],[-121.56942,36.99926],[-121.57001,36.99908],[-121.57041,36.99897],[-121.57146,36.99866],[-121.57266,36.99831],[-121.57413,36.99788],[-121.57428,36.99784],[-121.57577,36.9974],[-121.57638,36.99722],[-121.57761,36.99686],[-121.57845,36.99662],[-121.57877,36.99652],[-121.57917,36.99636],[-121.57962,36.99611],[-121.58005,36.9958],[-121.58029,36.99569],[-121.58213,36.9938],[-121.58236,36.99364],[-121.58274,36.99318],[-121.58323,36.99242],[-121.58359,36.99194],[-121.58398,36.99155],[-121.58434,36.99124],[-121.58479,36.99095],[-121.58517,36.99075],[-121.58558,36.99054],[-121.58591,36.9904],[-121.58637,36.99011],[-121.58684,36.98971],[-121.5872,36.98927],[-121.58749,36.98867],[-121.58773,36.99217],[-121.5877,36.99233],[-121.58731,36.99282],[-121.58722,36.99315],[-121.58735,36.99359],[-121.58755,36.994],[-121.58764,36.99434],[-121.58759,36.99479],[-121.58756,36.99501],[-121.58748,36.99561],[-121.58739,36.99594],[-121.58715,36.99623],[-121.58647,36.99698],[-121.58605,36.99746],[-121.58554,36.99808],[-121.5847,36.99928],[-121.58451,36.99954],[-121.584,37.00001],[-121.58223,37.00027],[-121.58188,37.00085],[-121.58186,37.00215],[-121.58187,37.00299],[-121.58185,37.00396],[-121.58185,37.0048],[-121.58182,37.00659],[-121.58179,37.0084],[-121.58176,37.01017],[-121.58174,37.01126],[-121.58173,37.01187],[-121.58172,37.01236],[-121.58171,37.01281],[-121.58171,37.01319],[-121.58186,37.01783]]]}},{"type":"Feature","properties":{"kind":"unorganized"},"geometry":{"type":"Polygon","coordinates":[[[-121.58186,37.01783],[-121.58125,37.018],[-121.58082,37.01813],[-121.58006,37.01835],[-121.57943,37.01853],[-121.57878,37.01873],[-121.57843,37.01883],[-121.57802,37.01895],[-121.57756,37.01909],[-121.57713,37.01923],[-121.5768,37.01932],[-121.57633,37.01936],[-121.57591,37.01937],[-121.57548,37.01938],[-121.57504,37.01939],[-121.5749,37.01938],[-121.57472,37.01941],[-121.57445,37.01943],[-121.57393,37.01975],[-121.57362,37.01977],[-121.57335,37.01987],[-121.57273,37.02002],[-121.57243,37.0203],[-121.5719,37.02041],[-121.57167,37.02052],[-121.57123,37.02059],[-121.57076,37.02077],[-121.56999,37.02107],[-121.56946,37.02134],[-121.56922,37.02145],[-121.56881,37.02166],[-121.56846,37.02175],[-121.56799,37.02185],[-121.56759,37.02202],[-121.5673,37.02216],[-121.56636,37.02222],[-121.56669,37.02209],[-121.56399,37.01785],[-121.56372,37.01662],[-121.56025,37.01021],[-121.55967,37.00989],[-121.55969,37.00956],[-121.55952,37.00887],[-121.55857,37.00749],[-121.55828,37.00656],[-121.55755,37.0056],[-121.55735,37.00523],[-121.55706,37.00471],[-121.55695,37.00437],[-121.5568,37.00399],[-121.55667,37.00361],[-121.55655,37.00323],[-121.55644,37.00284],[-121.55736,37.00276],[-121.55836,37.00246],[-121.55897,37.00222],[-121.55924,37.00222],[-121.55955,37.00211],[-121.55996,37.00199],[-121.56069,37.00178],[-121.56129,37.0016],[-121.56159,37.00152],[-121.56206,37.00137],[-121.56242,37.00126],[-121.56271,37.00119],[-121.56332,37.00101],[-121.56357,37.00094],[-121.56401,37.00082],[-121.56435,37.00072],[-121.56479,37.00059],[-121.56522,37.00047],[-121.56565,37.00035],[-121.56595,37.00027],[-121.56625,37.00018],[-121.56697,36.99997],[-121.56731,36.99987],[-121.56759,36.99979],[-121.56818,36.99962],[-121.569,36.99938],[-121.56942,36.99926],[-121.57001,36.99908],[-121.57041,36.99897],[-121.57146,36.99866],[-121.57266,36.99831],[-121.57413,36.99788],[-121.57428,36.99784],[-121.57577,36.9974],[-121.57638,36.99722],[-121.57761,36.99686],[-121.57845,36.99662],[-121.57877,36.99652],[-121.57917,36.99636],[-121.57962,36.99611],[-121.58005,36.9958],[-121.58029,36.99569],[-121.58213,36.9938],[-121.58236,36.99364],[-121.58274,36.99318],[-121.58323,36.99242],[-121.58359,36.99194],[-121.58398,36.99155],[-121.58434,36.99124],[-121.58479,36.99095],[-121.58517,36.99075],[-121.58558,36.99054],[-121.58591,36.9904],[-121.58637,36.99011],[-121.58684,36.98971],[-121.5872,36.98927],[-121.58749,36.98867],[-121.58773,36.99217],[-121.5877,36.99233],[-121.58731,36.99282],[-121.58722,36.99315],[-121.58735,36.99359],[-121.58755,36.994],[-121.58764,36.99434],[-121.58759,36.99479],[-121.58756,36.99501],[-121.58748,36.99561],[-121.58739,36.99594],[-121.58715,36.99623],[-121.58647,36.99698],[-121.58605,36.99746],[-121.58554,36.99808],[-121.5847,36.99928],[-121.58451,36.99954],[-121.584,37.00001],[-121.58223,37.00027],[-121.58188,37.00085],[-121.58186,37.00215],[-121.58187,37.00299],[-121.58185,37.00396],[-121.58185,37.0048],[-121.58182,37.00659],[-121.58179,37.0084],[-121.58176,37.01017],[-121.58174,37.01126],[-121.58173,37.01187],[-121.58172,37.01236],[-121.58171,37.01281],[-121.58171,37.01319],[-121.58186,37.01783]]]}}],"built_at":"2026-09-24T02:31:15.023Z"}